<?xml version="1.0" encoding="utf-8" ?>
<kml xmlns="http://www.opengis.net/kml/2.2">
<Document id="root_doc">
<Schema name="ju_priroda_maksmir_zp_poligoni" id="ju_priroda_maksmir_zp_poligoni">
	<SimpleField name="zasticeno_" type="float"></SimpleField>
	<SimpleField name="kategorija" type="float"></SimpleField>
	<SimpleField name="kategori_1" type="string"></SimpleField>
	<SimpleField name="podkategor" type="string"></SimpleField>
	<SimpleField name="naziv" type="string"></SimpleField>
	<SimpleField name="naziv_akt" type="string"></SimpleField>
	<SimpleField name="broj_regis" type="string"></SimpleField>
	<SimpleField name="naziv_full" type="string"></SimpleField>
</Schema>
<Folder><name>ju_priroda_maksmir_zp_poligoni</name>
  <Placemark>
	<Style><LineStyle><color>ff0000ff</color></LineStyle><PolyStyle><fill>0</fill></PolyStyle></Style>
	<ExtendedData><SchemaData schemaUrl="#ju_priroda_maksmir_zp_poligoni">
		<SimpleData name="zasticeno_">4330</SimpleData>
		<SimpleData name="kategorija">28</SimpleData>
		<SimpleData name="kategori_1">Spomenik parkovne arhitekture</SimpleData>
		<SimpleData name="podkategor">Park</SimpleData>
		<SimpleData name="naziv">ZAGREB - PARK MAKSIMIR</SimpleData>
		<SimpleData name="naziv_akt">Park Maksimir u Zagrebu</SimpleData>
		<SimpleData name="broj_regis">122</SimpleData>
		<SimpleData name="naziv_full">Park Maksimir u Zagrebu (Spomenik parkovne arhitekture)</SimpleData>
	</SchemaData></ExtendedData>
      <MultiGeometry><Polygon><outerBoundaryIs><LinearRing><coordinates>16.0206726623833,45.8394737634092 16.0210699645961,45.8393174108202 16.021356838776,45.839200892353 16.0216877396882,45.8390606707239 16.0221245535585,45.8388366266259 16.0224635730017,45.8391391832359 16.0226143228881,45.8392776808867 16.0227835005162,45.8392088292493 16.0229156790897,45.83914290017 16.0231172474652,45.8390219621178 16.0232709391263,45.8389169923083 16.023432040654,45.8388119560179 16.0235441254478,45.8386607421096 16.0236376861804,45.8385096956062 16.0236616206376,45.8384007092446 16.0236826598308,45.8383357762641 16.0236486530952,45.838299823724 16.02355955305,45.8382902644794 16.0234998523282,45.8382674919687 16.0234876449958,45.8382080359691 16.0237084920958,45.8381283606796 16.0237556044664,45.8380709632353 16.0238239453472,45.837958988343 16.0239641530055,45.8381286567529 16.0249757539835,45.837529100699 16.025327576563,45.8373187555731 16.0254376158206,45.8372582014132 16.0265723972635,45.8381181654422 16.0268989388659,45.8383457181469 16.027097619662,45.8384708287004 16.0272096154379,45.8385164364637 16.0276599700373,45.8386263314865 16.0281147473337,45.8387750320765 16.0284355877187,45.8388938602966 16.0284993788206,45.8389373116979 16.0285787044023,45.8390194695673 16.0286207936434,45.8390916039697 16.0287542539718,45.8394969972792 16.0288945045961,45.8398686618565 16.0290125753352,45.8398416995824 16.0296266402524,45.8397869528803 16.0297057238135,45.8394547463825 16.0298324682767,45.8392956253142 16.0299719035793,45.8392218528637 16.0300554838627,45.8391330453803 16.0300731176077,45.8388842663838 16.0300196259715,45.8387966964944 16.0300253121987,45.8387034124806 16.0301051864,45.8386146391982 16.0301113509507,45.8385472486242 16.0301821402243,45.838367914471 16.0303321607032,45.8382655573469 16.0306931780778,45.8383529392205 16.0308540717821,45.8382375350124 16.0310944853193,45.8382146440992 16.0311217099975,45.838284322246 16.031468950024,45.8386282150774 16.0315273138458,45.8385784808985 16.0315644072411,45.8385807357829 16.0316442775466,45.8384919605074 16.0316365338983,45.8384739023581 16.0318174003055,45.8382365958196 16.0317012168872,45.8381651325161 16.031734077809,45.8381389375083 16.0317058939849,45.8380174726109 16.0317521829715,45.8379160516257 16.031936163336,45.8378470536283 16.0320265233607,45.8377245158991 16.0321731217692,45.837637726711 16.0324706932421,45.8375003651562 16.0325909162575,45.8375899192103 16.0326674801032,45.8381227232248 16.0328097297822,45.8384011324396 16.0330542977572,45.838002680796 16.0331508642406,45.83781534121 16.0332287167671,45.8376178123409 16.0333402032738,45.8372361039987 16.0333875065142,45.8369896455683 16.0334357287512,45.8365929707409 16.0334909339561,45.8359735108897 16.0335525466411,45.835100193789 16.033598701986,45.8345921764374 16.0336349917937,45.8341515833216 16.0336898015486,45.8337108218983 16.0337875738016,45.8331893885405 16.0338495911806,45.8329376162249 16.0341136741803,45.8319951284772 16.0342655068469,45.8315923347725 16.0343618663552,45.831394637408 16.0345776784447,45.8308462341782 16.0350385354477,45.8297284433737 16.0352817534474,45.8290606595634 16.035477632395,45.8284373313141 16.0355336731012,45.828263307136 16.0357668750597,45.8272563496113 16.0358588930812,45.8268256085125 16.0359024721727,45.8267785968007 16.0359046350004,45.8258980468683 16.0359153604038,45.8250795749972 16.0359847207825,45.8248251451121 16.0360059323706,45.8247705670295 16.0361186278919,45.8246555919678 16.0361954420319,45.8244036846233 16.0362122277695,45.8243102993569 16.0361818283768,45.8242691391031 16.0361811551665,45.8242328882089 16.0362101108018,45.8241963679709 16.0362541208011,45.824172659793 16.0363055859625,45.8241514742792 16.0363873545244,45.8241662702519 16.0366366035162,45.8242235705431 16.0367297718579,45.8242538016588 16.036798940452,45.8243878426055 16.036848532752,45.8244650857083 16.0369406454153,45.8246377648937 16.0370156333079,45.8246862895679 16.0371123615126,45.824708718292 16.0371302052388,45.8246722985746 16.0373409274864,45.8246496647062 16.0375403951419,45.8246193627524 16.0374874414167,45.8247596933761 16.0375584853723,45.8247953040969 16.0375231828304,45.8248888584515 16.0376536308995,45.8249316982257 16.0376218872631,45.8250174505083 16.0378043792562,45.8250701761726 16.037655426803,45.8254263324261 16.0383064177581,45.8255732077816 16.0383857950033,45.8255971975377 16.0383903490077,45.8255051095453 16.0384856816605,45.8254524455549 16.0385953933349,45.8253763423595 16.0386962995403,45.8252252156726 16.0388192334131,45.8250635296529 16.0388951785147,45.8249644252358 16.0389737637473,45.8248083223398 16.0389102718044,45.8247804128094 16.0390224307074,45.8246369524735 16.0391918696518,45.8243867889461 16.0393733345112,45.8241857213547 16.0395540263538,45.8239432247813 16.039756214369,45.8236616842979 16.0398273653646,45.8234831171931 16.0396932953857,45.8234572371965 16.0394161959749,45.8234037481055 16.0389942195642,45.823321594065 16.0387102818951,45.8239871669228 16.0386894581349,45.8240624603157 16.0386465102151,45.8241431351177 16.0381217468899,45.8240106521814 16.0380647063135,45.8241303019204 16.0379435471066,45.8241883795671 16.0379893323336,45.8240610631332 16.0380782596035,45.8238634295059 16.0382504960534,45.823763449618 16.0384957733262,45.8232095912197 16.0382056431192,45.8231448972208 16.0390667387282,45.8222435780177 16.03839712222,45.822089107586 16.0384678649352,45.8219097676062 16.037869004738,45.8217753681051 16.037854528743,45.8217936284501 16.037355904963,45.8216712632586 16.0375063868676,45.8211985523076 16.0373017834581,45.8211512064367 16.0374038844535,45.8208654009241 16.0372811423688,45.8208380288969 16.0376032109878,45.8198328487482 16.0378300511339,45.8190849239434 16.0380007391832,45.8191014991801 16.0381088904259,45.8187431238303 16.0380160683253,45.8187310188564 16.0379341630451,45.81870845646 16.0380149516658,45.8184720491599 16.0381142094846,45.8182328848018 16.0382175055999,45.8180118117299 16.0382956980745,45.8178349942669 16.0383454227447,45.8177205902165 16.0383627811823,45.8176582776284 16.0383920205163,45.817637292887 16.0385882410434,45.8176329170164 16.0386347434564,45.8175444408868 16.0386165076958,45.8173607309802 16.0385820216655,45.8172988892419 16.038518152344,45.817250264671 16.0385402269063,45.8172422943682 16.0386514174141,45.8172464622197 16.0380156246948,45.817114988837 16.0381088300425,45.8171478086253 16.0381801532566,45.817198955083 16.0381847238294,45.817245530703 16.0379207878955,45.81719354609 16.0375281427439,45.8183858348441 16.0378328668109,45.8184400386694 16.0376574369187,45.818964773488 16.0375916445899,45.8190119884717 16.0375592782846,45.8190640788177 16.0368912447203,45.8189924579897 16.0366307163013,45.8189249015949 16.0363222388952,45.8188681383194 16.0360326148947,45.8188293323709 16.0357872850624,45.8187823537642 16.0355865889979,45.8187453287127 16.0354719316639,45.8187541386093 16.0354208068703,45.8187934496986 16.0354184496211,45.8188659850949 16.035404983232,45.8189386219868 16.0349283701629,45.8188030978611 16.0347608101846,45.8187554113986 16.0347454687386,45.8187270630113 16.0345753788027,45.8179438968935 16.034556094262,45.8179026347678 16.0344796241499,45.817973253104 16.0345589224483,45.8182548220561 16.0343764511242,45.81840150446 16.0342629944523,45.8184750474125 16.0340799526131,45.818391243899 16.0337033743658,45.8184568116546 16.0337041895548,45.8185008311008 16.0334229834955,45.8185163275567 16.0332454186044,45.8185282948425 16.0330461152847,45.818566357019 16.0325735852601,45.8186509185417 16.0323009346906,45.8187284898237 16.0318958757433,45.8188564644137 16.0313288280631,45.8190376987914 16.0314380903586,45.8191377126912 16.0312572516188,45.8191730149106 16.031261386694,45.8191962861457 16.0311691384851,45.8192152478452 16.0311502871456,45.8191972897914 16.0310467864395,45.8192085848654 16.0307663890108,45.8192680942147 16.0302900993009,45.8193500907277 16.0300021016811,45.8193993075081 16.0298691648584,45.819421225768 16.0297771078741,45.8194505446562 16.0296116074108,45.8195141933075 16.0295017972036,45.8195851092357 16.0293996819781,45.8196714936122 16.0292653349891,45.8198177343612 16.0290922094098,45.8200705063756 16.0292624205904,45.8196597833578 16.0293142668925,45.8196593148995 16.0293391856459,45.8196047046866 16.029305378537,45.8195791120592 16.0296783337089,45.8189153483628 16.0296408706525,45.8188923780788 16.0296217325009,45.8188588836496 16.0296573794748,45.818783457602 16.0296126053967,45.8187657327048 16.0295928937814,45.8187011660257 16.0295736616392,45.8186624928863 16.0294952717929,45.8186295327961 16.0294884387817,45.8186606717208 16.0294592419797,45.818684243063 16.0294001808099,45.8186951356776 16.0293752625289,45.8187497459144 16.0293009102719,45.8187348782812 16.0289424060268,45.8195797964402 16.0288717554484,45.819564894302 16.0278897361779,45.8193380754383 16.0271495838366,45.8191712253873 16.027064503001,45.819177170922 16.0270169331547,45.8192086764544 16.0269701731433,45.8192842014339 16.0267209989607,45.8198328914249 16.0264257737784,45.8204959462939 16.026269161825,45.8208417986082 16.0262663635038,45.8208910291097 16.0263041605253,45.8209321264186 16.0281713882417,45.82135557833 16.0281501703255,45.8214101558657 16.0280609046583,45.8213902418905 16.0280469030144,45.8214343945116 16.0269978587012,45.8211900430578 16.0270045031576,45.8211485459916 16.0264984536442,45.8210236111296 16.0264623255426,45.8210731417104 16.0240301116349,45.8205407831639 16.0233719503371,45.8204016606047 16.0232405793051,45.8207110248564 16.0236869838002,45.8208157915085 16.0238632775192,45.8209359297801 16.0237459129252,45.821201142493 16.0221614637569,45.8208450088698 16.0219047422114,45.8207825636604 16.0226907408371,45.8189318247141 16.0214063482924,45.818647855265 16.0210081732616,45.8195578480408 16.0216665079065,45.819707342492 16.021830362339,45.8193510729168 16.022176194269,45.8194256683913 16.0219588318659,45.8198937794201 16.0221151788642,45.8199364052065 16.0217596918073,45.820750195733 16.019992948858,45.8203490485124 16.019591138279,45.8202516379717 16.0184607250306,45.8200105244914 16.0182181161559,45.8199090983093 16.01784256447,45.8198295767513 16.0174333063883,45.8197296356557 16.0156818167813,45.8193490032055 16.0152688151895,45.8192464983611 16.0131294379683,45.8187164802769 16.012789124359,45.8186390222915 16.0126314380251,45.8195616535289 16.012493072196,45.8203873690749 16.0124009400214,45.8210252769693 16.012306060692,45.8211038127354 16.0122200649328,45.8216717408626 16.0121074073814,45.8226076560028 16.0122017342032,45.8227026423115 16.0123112062201,45.8228156215658 16.0123175881016,45.8229631834147 16.0122886745324,45.8232068805894 16.0122284874061,45.8233602129825 16.0121892985784,45.8234460236259 16.0120743079792,45.8236412781612 16.0118673836065,45.8238736054542 16.0114565729431,45.8242506239332 16.0130299479417,45.8246583546468 16.0129915722416,45.8249927791172 16.0133811670029,45.8250281659217 16.0133803195501,45.8249815575354 16.0136920885972,45.8250150443703 16.0136928423982,45.8250564749466 16.0134702428037,45.8250377339274 16.0134752653469,45.8251102039434 16.0137088804253,45.8251236668593 16.0137152052771,45.825064045602 16.0137782152732,45.8250660755411 16.0136763127357,45.8259811775378 16.0136136762259,45.8266110547008 16.0136693743215,45.8266183290585 16.0136050737964,45.8269529833961 16.0136768740582,45.8272346325794 16.0136003004411,45.8277092459629 16.0135140097102,45.828057044322 16.0134819455836,45.8281272535779 16.0134420498512,45.8281742247272 16.0133544267027,45.8282449270807 16.0132035550324,45.8283006528168 16.0131073935059,45.8283092761136 16.0134340447266,45.8283452213911 16.0134049922211,45.8285811510191 16.0135386157208,45.8285955030047 16.013548409703,45.82852290176 16.0138038868061,45.8285154518875 16.0138889366775,45.8291181176683 16.0139077089747,45.8293354937738 16.0139898239726,45.8295730247186 16.0141969356059,45.829757648441 16.0143028147211,45.8298758372612 16.0144127761052,45.8300147088565 16.0144519370577,45.8301309007749 16.0145687120789,45.8304406375008 16.0146415865848,45.8305772484831 16.014696648171,45.8307528644301 16.0147472520493,45.8308870835773 16.0147369878646,45.8309337913819 16.0147056311898,45.8310428416736 16.0146236888782,45.8312222657665 16.0145305861248,45.8313991994432 16.0144804714008,45.8314954676027 16.0144748070274,45.83159134066 16.0144837698213,45.8316767240087 16.0145120553176,45.8318059616333 16.0145441384137,45.8319403450959 16.0145761276611,45.8320695507453 16.0145971932593,45.8322092123488 16.0146059213463,45.8322816484768 16.0145811234398,45.8323440237763 16.0145280576225,45.8324817544071 16.0144745864407,45.8328007742315 16.0144585631229,45.8329381763259 16.0144092952497,45.8330810527386 16.0142967259946,45.8332063633714 16.014199114047,45.8333393101306 16.0140982208109,45.8334955951424 16.0140301948147,45.83362568925 16.0139835472429,45.8337089771104 16.0138885075296,45.8337797463379 16.0136755901316,45.8338878194824 16.0135146724387,45.8340031994914 16.0134036052773,45.8341406295138 16.0134883812244,45.834171129022 16.0136562989054,45.8342369716695 16.0135815692304,45.8344059718384 16.0135497362222,45.8344891282201 16.0134522623528,45.8346298427999 16.013328855855,45.8347707878651 16.0131838824234,45.8349481814399 16.0131121957465,45.8350808966612 16.0130546678306,45.8351772297237 16.0130596445648,45.8352033259867 16.0130735178732,45.8352113707561 16.0131180169318,45.8352135651122 16.0135574403642,45.8353365620815 16.0140756469946,45.8355132419503 16.0145270841738,45.8356853338964 16.0145894926331,45.835653701433 16.0150580453173,45.8353413488601 16.015198931361,45.8351432709698 16.0153171201239,45.8349194975588 16.0154366275572,45.8347682258054 16.0154979499765,45.8346770373383 16.0155477352612,45.8345626437893 16.0156344691787,45.8344427408613 16.0157030112855,45.8343411291056 16.0158233189344,45.8342338763263 16.0158756506883,45.8342593084218 16.0156863776038,45.8344448684482 16.0156947767934,45.8344991794705 16.01602637351,45.8348044116389 16.0159176962843,45.8349400483263 16.0155904642242,45.8346710338632 16.0155364565029,45.8347569779165 16.0160286625145,45.8351332941912 16.0163444561163,45.8353842811295 16.0163745159672,45.8354073215492 16.0163689956406,45.8355109622425 16.0163164515896,45.8356771769297 16.0168527191689,45.8358277853046 16.0170653353287,45.8359061741451 16.0172371088775,45.835979746214 16.0175917711882,45.8361267907355 16.01743607215,45.8363250033379 16.0172440842282,45.8365649764809 16.0171821958344,45.8366250936755 16.0170903394061,45.836667349304 16.0171534110409,45.8366719663341 16.0173134591579,45.8367119760087 16.0174922189119,45.8367621772272 16.0175410856667,45.8368005886993 16.0176646569184,45.8368720004317 16.0177955902555,45.8369407563223 16.017825604388,45.8369612074617 16.0178112121789,45.8369846438724 16.0178376639774,45.8370128955608 16.017878176658,45.8369995849363 16.0179718759909,45.837058313705 16.0180774467129,45.8371583739795 16.0181795969824,45.8372740023127 16.0182892981551,45.8373973331036 16.0183682762552,45.8374613730325 16.0185518177279,45.8377730989911 16.0186214335205,45.8379330439996 16.018675994333,45.8380801755078 16.0186697688535,45.8381449756185 16.0186246382026,45.8383111244408 16.0186121857585,45.8384407255439 16.0186151203339,45.8386012659904 16.0186275584958,45.8386736687705 16.0187454302061,45.8388383627034 16.0188700969271,45.8389693285715 16.0188373226065,45.8390006994376 16.0188862879327,45.8390442881297 16.0189688313854,45.8391005261542 16.0191558146617,45.8391946781516 16.0192830500126,45.8392634662348 16.0193502077933,45.8392887638336 16.0193770392353,45.8393377299328 16.0193707199728,45.8393973513774 16.0195064180578,45.8393210349678 16.0195078387666,45.8393987162738 16.0195675390489,45.8394214908641 16.0196166942487,45.8394754366288 16.0196591513855,45.8395682899568 16.0196956190853,45.8397388896961 16.0196198112076,45.8398483382749 16.0196061772957,45.8399132053475 16.019756362947,45.8398186307185 16.0199184212004,45.839765385469 16.0206726623833,45.8394737634092</coordinates></LinearRing></outerBoundaryIs><innerBoundaryIs><LinearRing><coordinates>16.0139596266968,45.8289148448658 16.013907879599,45.8285138868997 16.0147906691097,45.8283713687579 16.0148038256537,45.828687206774 16.0147437334048,45.8288457181533 16.0146876756698,45.829022322561 16.0146675251755,45.8291364530127 16.0147053849448,45.8293847360422 16.0147861846966,45.8295497645641 16.014915628223,45.829944850564 16.014904771415,45.8301624902942 16.0148648683482,45.8306160581564 16.0148210044116,45.830852119518 16.0147050274583,45.8305864024921 16.0146233309352,45.8303721766986 16.0145222189148,45.830108916955 16.0144754618751,45.8299824333528 16.0143807887806,45.8298693239592 16.0142784249229,45.829740744957 16.0141310945809,45.8295840775035 16.014038761465,45.8293958433137 16.0140089713925,45.8291837444422 16.0139596266968,45.8289148448658</coordinates></LinearRing></innerBoundaryIs></Polygon><Polygon><outerBoundaryIs><LinearRing><coordinates>16.012621005833,45.8286398242701 16.0126645628156,45.8284374343837 16.0125180799146,45.8286329687818 16.0124345384985,45.828775501169 16.0123891822304,45.8288788476313 16.012621005833,45.8286398242701</coordinates></LinearRing></outerBoundaryIs></Polygon><Polygon><outerBoundaryIs><LinearRing><coordinates>16.0121088245732,45.8291484082915 16.012136341287,45.8290316229617 16.0121882901303,45.8290363419159 16.0122058701742,45.8289843900739 16.0123335237389,45.8286698924563 16.0124992503613,45.8284120325968 16.0125789498782,45.8283129122478 16.012681671075,45.828257615444 16.0127955994657,45.8282073979736 16.0129731979877,45.8281954617245 16.0131286683094,45.8281889016519 16.0132540369628,45.8281567103239 16.013312452835,45.8281095760815 16.0133518310307,45.8280341216407 16.0134222849229,45.8278340819808 16.0134637191217,45.8276679668574 16.0134982161292,45.8275278117865 16.0131829633649,45.8275073035027 16.0131832931558,45.8275254294298 16.0132097850894,45.8275562720118 16.0132875662865,45.82755558119 16.0132879899886,45.8275788849231 16.012746143056,45.8275241311834 16.0127361958762,45.8273843707707 16.012536939727,45.8274275765307 16.0124822390721,45.8276792715808 16.0125120105204,45.8276867768999 16.012495937053,45.8278215890256 16.012442917382,45.8279619085967 16.0124083705612,45.8280994735237 16.0119734622907,45.8280178691094 16.0119275676388,45.8281425867734 16.0123145132811,45.8282349758264 16.012227688244,45.8283496967692 16.0118520417175,45.8282675665412 16.0117875327553,45.8283872692574 16.0121228596923,45.8284930657479 16.0120249214897,45.8286078857465 16.0118547845011,45.8288269369187 16.011764253013,45.828941691152 16.0113132548311,45.8287903022716 16.0112843755317,45.8288319948066 16.0114749210749,45.8289209487954 16.0114723447901,45.8289831260299 16.0116662664251,45.8290539210254 16.0116925695038,45.8290744065341 16.011593784689,45.8291426168904 16.0114575827923,45.8291904407547 16.0113391489577,45.8291966701629 16.0110960480124,45.8292739292777 16.0110162508338,45.8293678689542 16.0109356560545,45.8294177891204 16.010891959002,45.8294596133833 16.0110337173128,45.8295912568476 16.0110592112056,45.8296149315003 16.0112340415385,45.82952909517 16.0114580594561,45.8294209281912 16.0116524448903,45.8293130228394 16.0118363745272,45.829241467285 16.0121088245732,45.8291484082915</coordinates></LinearRing></outerBoundaryIs></Polygon><Polygon><outerBoundaryIs><LinearRing><coordinates>16.0133965895905,45.8304287063892 16.0134311670439,45.8300891371102 16.0127781287045,45.8300327807695 16.0122844111012,45.8299775975301 16.012272076792,45.8299103726948 16.0122370953235,45.8298200398977 16.0122325441599,45.8297734643201 16.0122690682253,45.8297446523176 16.0122634360452,45.8296385211761 16.0122620724368,45.8295634294911 16.0122124738041,45.8296881791144 16.0121384491993,45.8298960192145 16.0120760080641,45.8301296544768 16.0118755659855,45.8301081247516 16.0117646801436,45.8301220566732 16.0114126155691,45.8303194130578 16.0114203996881,45.8303400623799 16.0113252219826,45.8304030610208 16.0112955897777,45.8304033238973 16.0111284895279,45.8305860901957 16.011103641673,45.8306458758441 16.0110710097222,45.8306850121423 16.0109949607052,45.8307815079325 16.0108708061407,45.8308810208091 16.0107247544794,45.8309988549317 16.0106523155125,45.8310901399549 16.0106164021566,45.83115261257 16.0110000844405,45.8312683434469 16.0111976712774,45.8313365167032 16.0112619087135,45.8314058721139 16.0122039412334,45.831666855675 16.0123677699707,45.8317120181698 16.0124495431029,45.8317268312725 16.0132286505856,45.8319918421719 16.0132766975806,45.8317816431086 16.0133217631942,45.8312037187322 16.0133965895905,45.8304287063892</coordinates></LinearRing></outerBoundaryIs></Polygon></MultiGeometry>
  </Placemark>
  <Placemark>
	<Style><LineStyle><color>ff0000ff</color></LineStyle><PolyStyle><fill>0</fill></PolyStyle></Style>
	<ExtendedData><SchemaData schemaUrl="#ju_priroda_maksmir_zp_poligoni">
		<SimpleData name="zasticeno_">4391</SimpleData>
		<SimpleData name="kategorija">28</SimpleData>
		<SimpleData name="kategori_1">Spomenik parkovne arhitekture</SimpleData>
		<SimpleData name="podkategor">Park</SimpleData>
		<SimpleData name="naziv">ZAGREB - PARK U JURJEVSKOJ 27</SimpleData>
		<SimpleData name="naziv_akt">Park u Jurjevskoj 27</SimpleData>
		<SimpleData name="broj_regis">7</SimpleData>
		<SimpleData name="naziv_full">Park u Jurjevskoj 27 (Spomenik parkovne arhitekture)</SimpleData>
	</SchemaData></ExtendedData>
      <MultiGeometry><Polygon><outerBoundaryIs><LinearRing><coordinates>15.9750621689493,45.8229201294976 15.974959142651,45.8227334807651 15.9750407177767,45.8227070723272 15.975237289701,45.8226243016848 15.9755157526613,45.8225862097618 15.9754981736693,45.8221227560946 15.9754369295165,45.8219610177845 15.9752792899609,45.821974508008 15.9750885011558,45.8219882803333 15.9744942068336,45.8219492059673 15.9743946261224,45.8219423306094 15.9743735320025,45.8220904214804 15.9743425298357,45.8223942372212 15.9743336427285,45.822608454268 15.974300456098,45.8226970428197 15.9742422079484,45.8227968849369 15.9741390084518,45.8229445736232 15.9742637343751,45.8229446121983 15.9750621689493,45.8229201294976</coordinates></LinearRing></outerBoundaryIs></Polygon></MultiGeometry>
  </Placemark>
  <Placemark>
	<Style><LineStyle><color>ff0000ff</color></LineStyle><PolyStyle><fill>0</fill></PolyStyle></Style>
	<ExtendedData><SchemaData schemaUrl="#ju_priroda_maksmir_zp_poligoni">
		<SimpleData name="zasticeno_">4397</SimpleData>
		<SimpleData name="kategorija">28</SimpleData>
		<SimpleData name="kategori_1">Spomenik parkovne arhitekture</SimpleData>
		<SimpleData name="podkategor">Park</SimpleData>
		<SimpleData name="naziv">ZAGREB - MALLINOV PARK</SimpleData>
		<SimpleData name="naziv_akt">Mallinov park u Zagrebu</SimpleData>
		<SimpleData name="broj_regis">46</SimpleData>
		<SimpleData name="naziv_full">Mallinov park u Zagrebu (Spomenik parkovne arhitekture)</SimpleData>
	</SchemaData></ExtendedData>
      <MultiGeometry><Polygon><outerBoundaryIs><LinearRing><coordinates>15.9729976678367,45.8415913867613 15.9731137595437,45.8413759508089 15.9733831828537,45.8413390273207 15.9734232038063,45.8412515676605 15.9733333142514,45.8410457059893 15.973334679272,45.8410322928037 15.9737181642698,45.8409385496438 15.973706649092,45.8409196603891 15.973706197076,45.8408023885933 15.9737117642535,45.8405722576808 15.9737409523218,45.8405049941927 15.973826682141,45.8403814023417 15.9738323325463,45.84033891235 15.9738269539363,45.8403054513589 15.9736318664605,45.8401150074169 15.9735532436571,45.8400966916809 15.9732445051579,45.8400781044073 15.9728573020353,45.8400501339366 15.9726435908564,45.8400742942581 15.9721869617719,45.8401887609785 15.9721522394449,45.8402136282619 15.9721467643584,45.8402661696442 15.9720782355783,45.8404599783977 15.9720347200121,45.8412634073574 15.972368971922,45.8412784292674 15.9724600071514,45.8412754186984 15.9725846147417,45.8412732405661 15.9729976678367,45.8415913867613</coordinates></LinearRing></outerBoundaryIs></Polygon></MultiGeometry>
  </Placemark>
  <Placemark>
	<Style><LineStyle><color>ff0000ff</color></LineStyle><PolyStyle><fill>0</fill></PolyStyle></Style>
	<ExtendedData><SchemaData schemaUrl="#ju_priroda_maksmir_zp_poligoni">
		<SimpleData name="zasticeno_">4476</SimpleData>
		<SimpleData name="kategorija">16</SimpleData>
		<SimpleData name="kategori_1">Spomenik parkovne arhitekture</SimpleData>
		<SimpleData name="podkategor">Botanički vrt</SimpleData>
		<SimpleData name="naziv">BOTANIČKI VRT FARMACEUTSKO-BIOKEMIJSKOG FAKULTETA</SimpleData>
		<SimpleData name="naziv_akt">Botanički vrt Farmaceutsko-biokemijskog fakulteta Sveučilišta u Zagrebu</SimpleData>
		<SimpleData name="broj_regis">228</SimpleData>
		<SimpleData name="naziv_full">Botanički vrt Farmaceutsko-biokemijskog fakulteta Sveučilišta u Zagrebu (Spomenik parkovne arhitekture)</SimpleData>
	</SchemaData></ExtendedData>
      <MultiGeometry><Polygon><outerBoundaryIs><LinearRing><coordinates>15.9825295087611,45.8299870537099 15.9836771991086,45.8300550402885 15.9836579618469,45.8292277688445 15.9835852087595,45.8285242630318 15.9834645630994,45.8277368040887 15.9834063382653,45.8273632357716 15.9828990424728,45.8274661700584 15.982430773999,45.8275614650787 15.9824411397861,45.8278534119713 15.9824791023072,45.8279333955256 15.9825145055779,45.8290534772602 15.9825295087611,45.8299870537099</coordinates></LinearRing></outerBoundaryIs></Polygon></MultiGeometry>
  </Placemark>
  <Placemark>
	<Style><LineStyle><color>ff0000ff</color></LineStyle><PolyStyle><fill>0</fill></PolyStyle></Style>
	<ExtendedData><SchemaData schemaUrl="#ju_priroda_maksmir_zp_poligoni">
		<SimpleData name="zasticeno_">4500</SimpleData>
		<SimpleData name="kategorija">28</SimpleData>
		<SimpleData name="kategori_1">Spomenik parkovne arhitekture</SimpleData>
		<SimpleData name="podkategor">Park</SimpleData>
		<SimpleData name="naziv">ZAGREB - PARK RIBNJAK</SimpleData>
		<SimpleData name="naziv_akt">Park narodnog heroja Marka Oreškovića u Zagrebu</SimpleData>
		<SimpleData name="broj_regis">253</SimpleData>
		<SimpleData name="naziv_full">Park narodnog heroja Marka Oreškovića u Zagrebu (Spomenik parkovne arhitekture)</SimpleData>
	</SchemaData></ExtendedData>
      <MultiGeometry><Polygon><outerBoundaryIs><LinearRing><coordinates>15.9814176877543,45.8140697956119 15.9813810044147,45.8140701105055 15.9813091087054,45.8140314933862 15.9812765836657,45.8140227185001 15.9812399016433,45.8140230333543 15.9811603027102,45.8140372999 15.9811065178089,45.8140468166326 15.9809930855355,45.8141006112597 15.9808390889127,45.8140566621183 15.9808113831481,45.8140765188727 15.9806724376336,45.8140294220295 15.9805704924155,45.8140001166081 15.9805250462496,45.8139929617847 15.9804711552667,45.813996443712 15.9804177697315,45.8140285935757 15.9808982767981,45.8144771891831 15.9809370913405,45.8144753463769 15.980967459793,45.8144841394562 15.9809914600563,45.8144990240052 15.9810026747626,45.814523073371 15.9810032051046,45.8145532503965 15.9809797338576,45.8145685428697 15.9809432377216,45.8145794202637 15.9809043454916,45.8145767367516 15.9808760018837,45.8145603801827 15.9808394255496,45.8145667312117 15.9805028288414,45.8146933698983 15.9801891981423,45.8147760464275 15.9800131333346,45.8148273596224 15.9800091091647,45.8148439947091 15.9799858235979,45.8148698487127 15.9799275896988,45.8148718574495 15.9798903515224,45.8148404866683 15.9799015538369,45.8149867722922 15.9801433058719,45.8149892221493 15.9802261215256,45.8154035098415 15.9803274924303,45.8156456026723 15.9803416589155,45.8157148981958 15.9803182425732,45.815733207791 15.9802813732859,45.8157229614971 15.9801885075044,45.8157192323116 15.9800504862926,45.8157249451748 15.9799037007119,45.8157231883739 15.9797189520366,45.816017538373 15.9798971682826,45.8160884437249 15.9797013123433,45.8163647787212 15.9795682556703,45.8165304124794 15.9794460691362,45.8167004802994 15.9793687710582,45.8168460153802 15.9792944261745,45.8170367992251 15.9791648482768,45.817277856511 15.9789858783732,45.8175329186768 15.9788418293694,45.8178103170634 15.9787898534872,45.8180461814866 15.9787940245484,45.8184068173206 15.9789336544006,45.8183694009675 15.9791391991432,45.8182755826081 15.9793403234187,45.8181757655023 15.9795307346365,45.8180805673747 15.9797640655135,45.817971417787 15.9799696358224,45.8178791069992 15.9801999576221,45.8177216922567 15.9804462256175,45.817366449701 15.9806717866146,45.8170611851353 15.9809212687494,45.8167662765414 15.981127271848,45.8164536338591 15.9811837691889,45.8163527931017 15.9812702437127,45.8161158766231 15.981461215325,45.8157668925447 15.9816650906897,45.8153745362779 15.9817940669102,45.8151002817264 15.981797744924,45.815064031284 15.9817770778679,45.8149932820759 15.9817194603085,45.8149077597964 15.9815969781939,45.8148152505403 15.9815242052159,45.8147268403413 15.9814617687022,45.8146126879874 15.9814517839931,45.814535810102 15.9814509682485,45.8143667988517 15.9814576162311,45.8141313239341 15.9814176877543,45.8140697956119</coordinates></LinearRing></outerBoundaryIs></Polygon></MultiGeometry>
  </Placemark>
  <Placemark>
	<Style><LineStyle><color>ff0000ff</color></LineStyle><PolyStyle><fill>0</fill></PolyStyle></Style>
	<ExtendedData><SchemaData schemaUrl="#ju_priroda_maksmir_zp_poligoni">
		<SimpleData name="zasticeno_">4503</SimpleData>
		<SimpleData name="kategorija">28</SimpleData>
		<SimpleData name="kategori_1">Spomenik parkovne arhitekture</SimpleData>
		<SimpleData name="podkategor">Park</SimpleData>
		<SimpleData name="naziv">ZAGREB - PARK U JURJEVSKOJ 30</SimpleData>
		<SimpleData name="naziv_akt">Park u Zagrebu, kraj stambene zgrade u Jurjevskoj ulici broj 30</SimpleData>
		<SimpleData name="broj_regis">256</SimpleData>
		<SimpleData name="naziv_full">Park u Zagrebu, kraj stambene zgrade u Jurjevskoj ulici broj 30 (Spomenik parkovne arhitekture)</SimpleData>
	</SchemaData></ExtendedData>
      <MultiGeometry><Polygon><outerBoundaryIs><LinearRing><coordinates>15.9761911925009,45.8227588976487 15.9765982933914,45.8226469438174 15.9761018615493,45.8223293441811 15.9760838642149,45.822335033836 15.9759826421907,45.8221737891547 15.9758656405912,45.8222095852754 15.9758843299704,45.8222434285595 15.9758630228649,45.8222538907993 15.9759443988223,45.8223797204688 15.9757835550238,45.822430915136 15.9757997344023,45.8224505463757 15.9758277323838,45.8224993356524 15.9758988698559,45.8225572442569 15.9761911925009,45.8227588976487</coordinates></LinearRing></outerBoundaryIs></Polygon></MultiGeometry>
  </Placemark>
  <Placemark>
	<Style><LineStyle><color>ff0000ff</color></LineStyle><PolyStyle><fill>0</fill></PolyStyle></Style>
	<ExtendedData><SchemaData schemaUrl="#ju_priroda_maksmir_zp_poligoni">
		<SimpleData name="zasticeno_">4507</SimpleData>
		<SimpleData name="kategorija">28</SimpleData>
		<SimpleData name="kategori_1">Spomenik parkovne arhitekture</SimpleData>
		<SimpleData name="podkategor">Park</SimpleData>
		<SimpleData name="naziv">ZAGREB - PARK ZRINJEVAC</SimpleData>
		<SimpleData name="naziv_akt">Park na Trgu Nikole Šubić Zrinskoga (&quot;Zrinjevac&quot;) u Zagrebu</SimpleData>
		<SimpleData name="broj_regis">260</SimpleData>
		<SimpleData name="naziv_full">Park na Trgu Nikole Šubić Zrinskoga (&quot;Zrinjevac&quot;) u Zagrebu (Spomenik parkovne arhitekture)</SimpleData>
	</SchemaData></ExtendedData>
      <MultiGeometry><Polygon><outerBoundaryIs><LinearRing><coordinates>15.9774963137244,45.8113645111568 15.978037431329,45.8113821198228 15.9785791347809,45.8114330903074 15.9787010962092,45.8111317160093 15.9788494014926,45.8105186646395 15.9788918431352,45.8102179720284 15.9790864866916,45.8095266595132 15.9786565133335,45.8094969793462 15.9781945396977,45.8094564492573 15.9777806649942,45.8094377502331 15.9777234848034,45.8098053081931 15.9776537130029,45.8103620688082 15.9775497946753,45.8107856429578 15.9774963137244,45.8113645111568</coordinates></LinearRing></outerBoundaryIs></Polygon></MultiGeometry>
  </Placemark>
  <Placemark>
	<Style><LineStyle><color>ff0000ff</color></LineStyle><PolyStyle><fill>0</fill></PolyStyle></Style>
	<ExtendedData><SchemaData schemaUrl="#ju_priroda_maksmir_zp_poligoni">
		<SimpleData name="zasticeno_">4508</SimpleData>
		<SimpleData name="kategorija">28</SimpleData>
		<SimpleData name="kategori_1">Spomenik parkovne arhitekture</SimpleData>
		<SimpleData name="podkategor">Park</SimpleData>
		<SimpleData name="naziv">ZAGREB - PARK KRALJA TOMISLAVA</SimpleData>
		<SimpleData name="naziv_akt">Park na Trgu kralja Tomislava u Zagrebu</SimpleData>
		<SimpleData name="broj_regis">259</SimpleData>
		<SimpleData name="naziv_full">Park na Trgu kralja Tomislava u Zagrebu (Spomenik parkovne arhitekture)</SimpleData>
	</SchemaData></ExtendedData>
      <MultiGeometry><Polygon><outerBoundaryIs><LinearRing><coordinates>15.9792264802226,45.8075343932795 15.9792298914335,45.8068224750144 15.9792926161096,45.8058653347155 15.9793148561415,45.8053201047128 15.9787896986274,45.8053023652171 15.9782170292621,45.8052961540865 15.9781382997833,45.8053413224173 15.97812590641,45.8055416468213 15.9780926272077,45.8063650538881 15.9780331949496,45.807511261001 15.9789879415082,45.8075364407065 15.9792264802226,45.8075343932795</coordinates></LinearRing></outerBoundaryIs><innerBoundaryIs><LinearRing><coordinates>15.978562532075,45.8072698224399 15.9785630238208,45.8072584872559 15.9785672694346,45.8072585066311 15.9785690330401,45.8072211731499 15.9785627297906,45.8072210544049 15.9785633510302,45.8072096298321 15.9785636906136,45.807200813382 15.9785211125812,45.807199899228 15.9785232561052,45.8071494304608 15.9785154148845,45.8071486748368 15.9785160512457,45.8071356307005 15.9785128357183,45.8071355260451 15.9785130139098,45.8071302180625 15.9784811125901,45.8071295325813 15.9784808057409,45.8071348399766 15.9784654983533,45.8071345001688 15.9784656698318,45.8071299119923 15.9784304251712,45.8071290312772 15.9784301267146,45.8071334389147 15.978414690673,45.8071330985129 15.9784149916501,45.8071284209481 15.9783833476422,45.8071277366141 15.9783830424634,45.8071328640576 15.9783669639888,45.8071324307369 15.9783671472332,45.8071265829 15.9783351172631,45.8071258967907 15.9783349424143,45.8071308448699 15.9783277394328,45.8071306320245 15.9783277083563,45.8071339611275 15.9783004377654,45.8071333867177 15.9783005916186,45.8071306880325 15.9782874713626,45.807130358187 15.9782877622708,45.8071267603317 15.9782879262041,45.8071229819374 15.9782881212163,45.8071158744401 15.9783008563449,45.8071161125474 15.978301009358,45.8071135038379 15.9783083418317,45.8071136272966 15.9783088428667,45.8071013023803 15.9783033115589,45.8071011871455 15.9783037899164,45.8070912915745 15.9783091934086,45.8070913162461 15.9783100013082,45.8070736839348 15.9783043413486,45.8070735681127 15.9783048356646,45.8070619630023 15.978310494783,45.8070621688001 15.9783113194803,45.8070427369736 15.9783032150891,45.8070426099906 15.9783033790211,45.8070388315962 15.9782872997343,45.8070384882401 15.9782880841209,45.8070233752501 15.9783033906369,45.8070238050573 15.9783035453295,45.8070210163962 15.9783310723345,45.8070216819556 15.97833077975,45.8070254597626 15.9783363110504,45.807025574996 15.9783360193061,45.8070292628273 15.978373966485,45.8070300659298 15.978374131252,45.8070261975595 15.9783893099549,45.8070265367921 15.9783891426695,45.8070306750897 15.9784200138562,45.8070314458738 15.9784200491258,45.8070276668919 15.9784362579046,45.8070279208408 15.9784362268347,45.807031249944 15.9784699284201,45.8070320336345 15.9784700906615,45.8070284351914 15.9784855266746,45.8070287755856 15.9784853661135,45.8070321940773 15.9785170100688,45.8070328783828 15.9785171706279,45.807029459891 15.9785236025102,45.8070295792257 15.9785242564992,45.807014645598 15.9785423934117,45.807015088291 15.9785447984142,45.8069641708171 15.9785716829627,45.8069647434069 15.9785724639132,45.8069499903174 15.9785764513556,45.8069500984938 15.9785769313422,45.8069400229697 15.9785963556128,45.8069403815493 15.9785958798271,45.8069500071947 15.9785999959238,45.8069501159573 15.9785998320121,45.8069538943523 15.97868177135,45.8069557079094 15.9786819344168,45.8069520194901 15.978686306983,45.8069522193994 15.9786867869498,45.8069421438747 15.9787069823083,45.8069425959332 15.9787064998272,45.8069529413853 15.9787102308009,45.8069529584072 15.978709584416,45.8069670822544 15.978734023697,45.8069677336295 15.9787317517174,45.8070182018161 15.9787555485881,45.8070187602762 15.9787549005354,45.807033064075 15.9787621035062,45.8070332768935 15.9787617992019,45.8070383143624 15.9787946010549,45.8070390038732 15.9787947708277,45.8070345956476 15.9788114933894,45.8070349418665 15.9788110646307,45.80703952887 15.9788450226972,45.8070404035994 15.9788451949833,45.8070357254464 15.9788610169645,45.8070360675505 15.9788608522312,45.8070399359216 15.9788932681232,45.8070406236436 15.9788934345323,45.8070365753209 15.9789091278596,45.8070369168315 15.9789089631296,45.8070407852027 15.9789421501107,45.8070415664071 15.9789423156774,45.80703760806 15.9789490048706,45.8070377285441 15.9789491687589,45.8070339501486 15.9789701360798,45.8070344056809 15.978969971354,45.8070382740523 15.9789859219913,45.8070386167256 15.9789853925856,45.8070540008218 15.9789681553989,45.8070536522816 15.9789681235218,45.8070570713608 15.9789622070921,45.8070568644221 15.9789613624876,45.8070784556727 15.9789671511039,45.8070785720489 15.9789665274319,45.8070902665518 15.978961509903,45.8070902436714 15.978960847641,45.8071060770595 15.978965992987,45.8071061905024 15.9789656475956,45.8071156367845 15.9789599876301,45.8071155209948 15.9789594934497,45.8071271261085 15.9789641250178,45.807127147229 15.9789639636468,45.8071306556972 15.9789821006011,45.8071310983205 15.9789816349461,45.8071396442583 15.9789816064251,45.8071427034343 15.9789814651876,45.8071440524841 15.9789814500882,45.8071456720479 15.9789658862234,45.807145241158 15.978965734919,45.807147669917 15.9789428385739,45.8071471156074 15.9789429915571,45.8071445068969 15.9789365596605,45.8071443875859 15.9789363468142,45.8071396176969 15.9789040595188,45.8071389305736 15.9789037527097,45.8071442379702 15.9788879306976,45.807143895872 15.9788881029805,45.807139217719 15.978855429722,45.8071385288217 15.9788552582754,45.8071431169988 15.9788390502998,45.8071427731334 15.978839356276,45.8071375557128 15.9788077122567,45.8071368714964 15.9788074045993,45.8071422688684 15.9787919693917,45.8071418385417 15.9787922795681,45.8071361712424 15.9787614066391,45.8071355805101 15.9787610964597,45.8071412478094 15.9787544072546,45.8071411273143 15.9787541046273,45.8071459848316 15.9787536406157,45.8071543508167 15.9787468227543,45.8071542297342 15.9787446777536,45.807204878458 15.978700941821,45.8072039590886 15.9787006064557,45.8072123256604 15.9786999835655,45.8072239301855 15.9786936803153,45.8072238114477 15.9786920471266,45.8072609655667 15.9786957781208,45.8072609825892 15.9786951543896,45.80727267709 15.978562532075,45.8072698224399</coordinates></LinearRing></innerBoundaryIs></Polygon></MultiGeometry>
  </Placemark>
  <Placemark>
	<Style><LineStyle><color>ff0000ff</color></LineStyle><PolyStyle><fill>0</fill></PolyStyle></Style>
	<ExtendedData><SchemaData schemaUrl="#ju_priroda_maksmir_zp_poligoni">
		<SimpleData name="zasticeno_">4509</SimpleData>
		<SimpleData name="kategorija">28</SimpleData>
		<SimpleData name="kategori_1">Spomenik parkovne arhitekture</SimpleData>
		<SimpleData name="podkategor">Park</SimpleData>
		<SimpleData name="naziv">ZAGREB - PARK JOSIPA JURJA STROSSMAYERA</SimpleData>
		<SimpleData name="naziv_akt">Park na Trgu Josipa Jurja Strossmayera u Zagrebu</SimpleData>
		<SimpleData name="broj_regis">258</SimpleData>
		<SimpleData name="naziv_full">Park na Trgu Josipa Jurja Strossmayera u Zagrebu (Spomenik parkovne arhitekture)</SimpleData>
	</SchemaData></ExtendedData>
      <MultiGeometry><Polygon><outerBoundaryIs><LinearRing><coordinates>15.9790875975792,45.8093660834656 15.9792287522713,45.8077089199361 15.9780186862403,45.807672381448 15.9779562991408,45.8085686295211 15.9778590445535,45.8092575941491 15.9783610639097,45.8093048157484 15.9784009735099,45.8093100278007 15.9784006874676,45.8093088306666 15.9784020017795,45.8093058673411 15.9784051173265,45.8093029122382 15.9784092428343,45.8093020312754 15.9784144562414,45.8092810898374 15.9783895071939,45.8092798062105 15.978394686011,45.8092487869049 15.9782402818372,45.8092356647549 15.9782540973372,45.8091615846852 15.9782786561504,45.8091633164577 15.9783167968209,45.8089505989641 15.978444317237,45.8089628784634 15.9784502713047,45.8089315027741 15.9786452947903,45.8089486791108 15.9786406332955,45.8089794308512 15.9787718824439,45.8089919969374 15.978733757743,45.8092031850013 15.9787548327138,45.8092059805324 15.9787400003388,45.8092787963091 15.9785866328296,45.8092648695406 15.9785818375777,45.8092961605438 15.9785561199198,45.8092945135275 15.9785514396745,45.8093134778549 15.978556574308,45.8093147610015 15.9785586051564,45.8093177395949 15.9785585698933,45.8093215185754 15.9785576340122,45.8093252934458 15.9785550364692,45.8093278909986 15.9785536543631,45.8093286063271 15.978557264494,45.8093290430071 15.9786647911961,45.8093342944893 15.9790875975792,45.8093660834656</coordinates></LinearRing></outerBoundaryIs><innerBoundaryIs><LinearRing><coordinates>15.978307776078,45.80818033267 15.978312699179,45.8080664410054 15.9783268489094,45.808066775548 15.9783342494346,45.8078942285061 15.9784545247184,45.8078967571237 15.9784541825934,45.8079058434995 15.9785293062081,45.8079074460952 15.9785296416041,45.8078990795251 15.9786621375927,45.8079018436567 15.9786616785964,45.8079096697858 15.9787100458741,45.8079107002793 15.9787373168493,45.8079112745929 15.9787376513749,45.8079029979978 15.9788623001802,45.807905636118 15.9788549163868,45.8080765636374 15.9788726676765,45.8080770045189 15.9788677356466,45.8081919759213 15.9787878513246,45.8081903518318 15.9787873654889,45.8082010571849 15.9786184646921,45.808197497228 15.9786181586886,45.808202714647 15.9785583423544,45.8082014519066 15.9785586534008,45.8081956946334 15.9783871803354,45.808192032616 15.9783876603687,45.8081819570951 15.978307776078,45.80818033267</coordinates></LinearRing></innerBoundaryIs></Polygon></MultiGeometry>
  </Placemark>
  <Placemark>
	<Style><LineStyle><color>ff0000ff</color></LineStyle><PolyStyle><fill>0</fill></PolyStyle></Style>
	<ExtendedData><SchemaData schemaUrl="#ju_priroda_maksmir_zp_poligoni">
		<SimpleData name="zasticeno_">4521</SimpleData>
		<SimpleData name="kategorija">16</SimpleData>
		<SimpleData name="kategori_1">Spomenik parkovne arhitekture</SimpleData>
		<SimpleData name="podkategor">Botanički vrt</SimpleData>
		<SimpleData name="naziv">BOTANIČKI VRT PRIRODOSLOVNO-MATEMATIČKOG FAKULTETA</SimpleData>
		<SimpleData name="naziv_akt">Botanički vrt Prirodoslovno-matematičkog fakulteta</SimpleData>
		<SimpleData name="broj_regis">271</SimpleData>
		<SimpleData name="naziv_full">Botanički vrt Prirodoslovno-matematičkog fakulteta (Spomenik parkovne arhitekture)</SimpleData>
	</SchemaData></ExtendedData>
      <MultiGeometry><Polygon><outerBoundaryIs><LinearRing><coordinates>15.9737575983737,45.80553229548 15.9738500850608,45.8055058462943 15.9739057377107,45.8054711580694 15.9739292078323,45.805414505189 15.973950709335,45.8052449638046 15.9740428507403,45.8043580457735 15.9725961688287,45.8042934087822 15.9709192504024,45.8042101856467 15.9695282904456,45.8041142425475 15.9695105812801,45.8045027176021 15.9694774787838,45.805413079466 15.9711807690916,45.8054635969357 15.9723799321841,45.8054995699578 15.9737575983737,45.80553229548</coordinates></LinearRing></outerBoundaryIs></Polygon></MultiGeometry>
  </Placemark>
  <Placemark>
	<Style><LineStyle><color>ff0000ff</color></LineStyle><PolyStyle><fill>0</fill></PolyStyle></Style>
	<ExtendedData><SchemaData schemaUrl="#ju_priroda_maksmir_zp_poligoni">
		<SimpleData name="zasticeno_">4525</SimpleData>
		<SimpleData name="kategorija">28</SimpleData>
		<SimpleData name="kategori_1">Spomenik parkovne arhitekture</SimpleData>
		<SimpleData name="podkategor">Park</SimpleData>
		<SimpleData name="naziv">ZAGREB - PARK UZ DVORAC JUNKOVIĆ</SimpleData>
		<SimpleData name="naziv_akt">Park uz dvorac Junković u Zagrebu</SimpleData>
		<SimpleData name="broj_regis">276</SimpleData>
		<SimpleData name="naziv_full">Park uz dvorac Junković u Zagrebu (Spomenik parkovne arhitekture)</SimpleData>
	</SchemaData></ExtendedData>
      <MultiGeometry><Polygon><outerBoundaryIs><LinearRing><coordinates>15.8717253009868,45.8219166613399 15.871727875725,45.8219640667499 15.8717198718167,45.8220384698981 15.8717695542311,45.8221675458894 15.8718046737358,45.8223031435795 15.8718018493176,45.8223569987167 15.871806035822,45.8223902925159 15.8718141699937,45.8224415004216 15.8718337542367,45.8224401837174 15.8718403729019,45.8224397387147 15.8724166779125,45.822401003964 15.872940804738,45.8223594434454 15.872852420929,45.8218075375946 15.8727828041142,45.8213223922924 15.8727657928033,45.8212543788486 15.8727312362587,45.8211976505787 15.8726897667225,45.8211521254728 15.8726248943975,45.821083239169 15.8725655135693,45.8210254621489 15.8725078464879,45.8209639540644 15.8724339609242,45.8208852256904 15.872370610018,45.8208002205834 15.8723052160984,45.820697885877 15.872293547616,45.8205183236196 15.8716731645336,45.8205069595746 15.8716616617467,45.8206780263887 15.8716352212933,45.8211970055513 15.8716586798191,45.8215249547549 15.8716759178031,45.821572247349 15.8717762150477,45.8217727159961 15.8717747526783,45.8219137191816 15.8717253009868,45.8219166613399</coordinates></LinearRing></outerBoundaryIs></Polygon><Polygon><outerBoundaryIs><LinearRing><coordinates>15.8717118383917,45.8217591089561 15.8717253009868,45.8219166613399 15.8717340945281,45.8217756012884 15.8716184545046,45.8215316709525 15.8716097197758,45.8214420151184 15.8716040392395,45.8211959612633 15.87123554726,45.8211949319454 15.8712684511917,45.8213061925969 15.8713064928379,45.8213943433 15.8714313064854,45.8215215653421 15.8717118383917,45.8217591089561</coordinates></LinearRing></outerBoundaryIs></Polygon></MultiGeometry>
  </Placemark>
  <Placemark>
	<Style><LineStyle><color>ff0000ff</color></LineStyle><PolyStyle><fill>0</fill></PolyStyle></Style>
	<ExtendedData><SchemaData schemaUrl="#ju_priroda_maksmir_zp_poligoni">
		<SimpleData name="zasticeno_">4587</SimpleData>
		<SimpleData name="kategorija">6</SimpleData>
		<SimpleData name="kategori_1">Značajni krajobraz</SimpleData>
		<SimpleData name="naziv">GORANEC</SimpleData>
		<SimpleData name="naziv_akt">Krajolik Goranec</SimpleData>
		<SimpleData name="broj_regis">328</SimpleData>
		<SimpleData name="naziv_full">Goranec (Značajni krajobraz)</SimpleData>
	</SchemaData></ExtendedData>
      <MultiGeometry><Polygon><outerBoundaryIs><LinearRing><coordinates>16.0795126499476,45.9201205047949 16.0795596918702,45.9200484842085 16.0795958728738,45.919993090231 16.0800279247565,45.9196166651049 16.0803655133588,45.9193146018403 16.0805724809799,45.9190078805493 16.0805837841594,45.9188476058944 16.0806904239066,45.9186150114186 16.080863340879,45.9184443181336 16.0808661394798,45.9182347664882 16.0806888724754,45.9178945399231 16.0805335644459,45.9176051258616 16.0805234444328,45.9174778609778 16.0806227583054,45.9172654378402 16.0808152477018,45.9171417137577 16.0814730179587,45.9171540384505 16.0817357738717,45.9171354374971 16.0817934975692,45.9171313415207 16.0822154712062,45.9169720442478 16.0827837148902,45.9167285078208 16.0829572615264,45.9165908552724 16.0831055090307,45.9164059257879 16.083159515624,45.9163639123971 16.0832989916588,45.9161251169171 16.0835048029231,45.915661275616 16.0836142257542,45.9155432653242 16.0839554684205,45.9154140547168 16.0840484067496,45.9153321919755 16.0843163451733,45.9149697337786 16.084550846934,45.9146555812622 16.0846550324469,45.9144896314017 16.0846960050043,45.9143872658309 16.0847510010446,45.9141228074817 16.0848670786264,45.9139057572015 16.0849091032914,45.9138573685949 16.0850977456574,45.9136156334641 16.0851899767276,45.9134977850473 16.0852310064282,45.9133984184375 16.0852384851686,45.9133413618134 16.0852123817327,45.913104668419 16.0851602893865,45.9126372772256 16.0851762674628,45.9123551933367 16.0852000170117,45.9120310468777 16.0852115111303,45.9112991156034 16.0852797418476,45.9110525268224 16.0853243032866,45.9109141369329 16.0853890209547,45.9104876244574 16.0854474870257,45.9101811422934 16.0854945876106,45.9099527494003 16.0855329195507,45.9097154429532 16.0855567037703,45.9096132413915 16.0856235045677,45.9095136306188 16.0859233293257,45.9094657874295 16.0861996823476,45.9093161932809 16.0866352118167,45.9091770791326 16.0868208653276,45.9092232991829 16.0870525425682,45.9092060960389 16.0875456712791,45.9091564077819 16.0877906463866,45.9091600711345 16.0880967576909,45.9092141386448 16.0885302043573,45.9094079569613 16.0886721990156,45.909418598772 16.0887715300325,45.9094446440712 16.0890809411425,45.9094476907259 16.0893732874017,45.9094568962993 16.0894793873503,45.9093899002191 16.089524878749,45.9092994864357 16.0895758394147,45.909269007691 16.0897341354461,45.9092345036081 16.0899779337366,45.9091781886447 16.0900967454964,45.9091020724443 16.0904893037424,45.9089633536194 16.0906720197453,45.9088596320262 16.0907481659372,45.9087989185981 16.0908279613217,45.9087051782802 16.0908702122577,45.9086687832106 16.0910742860903,45.9085588578718 16.0910775235816,45.9085048403931 16.0911762056867,45.9082789510968 16.0912006261455,45.9082097338348 16.0912345797766,45.9081884153449 16.0908136671825,45.9077575448865 16.0907713593813,45.9075719946764 16.0906550877899,45.9071202163167 16.0905880103636,45.9067669429047 16.0903434582671,45.9067842762264 16.0904712656967,45.9067290685461 16.0906672732192,45.9066462145606 16.0910933536431,45.9064651845564 16.0914069274545,45.9064621851944 16.0918084705886,45.9065633185382 16.0920598490942,45.9066748855201 16.0922476187769,45.9068290491173 16.0924636338298,45.9068899663792 16.0926397573886,45.9071072262396 16.09261810792,45.9073173826065 16.0928741408099,45.9074468987835 16.0929113937518,45.9075935066401 16.0929913081302,45.9077247092443 16.0931049977136,45.9078255961102 16.0932348686932,45.9078753384991 16.0932854217275,45.908042814465 16.0934058768832,45.9080506572985 16.0935576982889,45.9081241839109 16.0938679279265,45.9081691988357 16.0943913606075,45.908350134757 16.094452443584,45.9083975368914 16.0945051727477,45.9084570167841 16.0945449549224,45.9085136209088 16.0946574097687,45.9085515334619 16.0947622183209,45.9086375066072 16.0948313033589,45.9086548392876 16.0950919217342,45.9085803561082 16.0952561024941,45.9086267680023 16.0953988650395,45.9086763853246 16.095468717629,45.9087327005857 16.0955629869129,45.908719798503 16.0958357248356,45.9086062062132 16.0961327752847,45.9086363454037 16.0961639083672,45.9086900328019 16.0960600045703,45.9088679883709 16.0960791972598,45.9089697789831 16.0961613480452,45.908995983877 16.0963281699876,45.9089583893512 16.0963843706498,45.9089758456354 16.0964719389532,45.9090589840913 16.0967249122434,45.9090325580105 16.0968709672642,45.9090311541161 16.096952704599,45.9090363669267 16.0971779148606,45.9091271785603 16.097244776324,45.9092495062028 16.0973357563812,45.9092876220567 16.0974516220772,45.9092805090125 16.0975378335386,45.9092946764736 16.0975905655681,45.9093541540427 16.0977110229009,45.909361993243 16.097728384567,45.9093708245112 16.0977383960867,45.9094427107386 16.0978812212162,45.9094953232368 16.0981697455736,45.9095285376611 16.0982900868026,45.9095303788128 16.0983437678985,45.909637836504 16.0984898827774,45.9096394288155 16.0987841869192,45.9097475686264 16.098943011297,45.909740039828 16.0990547588602,45.9097419624861 16.0991774712169,45.9098637507091 16.0993305773661,45.9097842945493 16.0996540643443,45.9098471621611 16.0998248461149,45.9098474247268 16.099947613431,45.9097739808929 16.100042903323,45.909881452969 16.1002240255839,45.9098797068304 16.1002586032433,45.9098621561248 16.1002234405709,45.9097974523556 16.1003436986351,45.909739133606 16.1006153297927,45.9097680493092 16.1007347544396,45.9098102595813 16.1009938856871,45.9097781949539 16.1011281669279,45.9098577102513 16.1011876832789,45.9098689609673 16.1013124421854,45.9098953513353 16.1015203686553,45.9098440702258 16.101938105515,45.90969418234 16.1021054050786,45.9097300156408 16.1021860997815,45.9096701058448 16.1021819482778,45.909603131612 16.1023256582375,45.9094460345536 16.1024796706776,45.9093814749712 16.1026610459859,45.909415199653 16.102701749334,45.9093320252002 16.1028917876488,45.9093755206461 16.1030458781302,45.909314901605 16.1032133408833,45.9092167036116 16.1036045995238,45.9091557607508 16.1036313027199,45.9090786334046 16.1036841180867,45.9090367321016 16.103783664724,45.9090732178374 16.1038514155297,45.9090725628431 16.1039216385796,45.9090541439339 16.1039882153472,45.9089943701792 16.104116818941,45.9089300541483 16.1042258969126,45.9088777525882 16.1044014329057,45.9087597640637 16.1045066305761,45.9086542826299 16.1046578166225,45.908589747213 16.1047986149963,45.908428733702 16.1049001629405,45.9084238076384 16.1050281759705,45.9083299307757 16.1051988854393,45.9082533798775 16.1052325620953,45.9083851105753 16.1052359733746,45.908414642327 16.1053025449312,45.9084967792118 16.1053731581669,45.9084980668282 16.1056358097755,45.908359523015 16.1056492971949,45.9083278559295 16.1056374971725,45.9083023469477 16.1056054256883,45.9082514122156 16.1056133449543,45.9082237416326 16.1056698041652,45.9082231941538 16.1057718209807,45.9082419160402 16.1058334930977,45.9082196369923 16.1058351413824,45.9081604911684 16.1058657232546,45.9081365428423 16.1060209832459,45.9081350384304 16.1061383689161,45.9082166814741 16.106268967,45.9082528644685 16.1063507939682,45.9082501006189 16.1064413221778,45.9081171658742 16.1067632123134,45.9079760737356 16.106935644438,45.9079862271305 16.1070386787621,45.9079142715977 16.1071713947983,45.9079149546424 16.1072331916817,45.9079154252948 16.1072401109336,45.9078770059922 16.1072581736564,45.9077767111513 16.1072441193576,45.9076167810024 16.1072621006498,45.9075863213758 16.1073732793938,45.9075635970786 16.1074219450213,45.9074398286218 16.1077063309766,45.9073846508962 16.1078011573901,45.9071641668466 16.1071115414457,45.9074088099739 16.1069358993051,45.9075070998467 16.106737400014,45.9075814945219 16.1066111373083,45.9076110720839 16.1063728155401,45.9076669267356 16.1062991903362,45.9076841648206 16.1062650469068,45.9076834191375 16.1060924117949,45.9075769264212 16.1060814266103,45.9075834470484 16.106042225207,45.907527539966 16.1059856985424,45.9074469992509 16.1057693317531,45.9072733333564 16.1055757825066,45.9072070472383 16.1053028598499,45.9071242465432 16.1051782539148,45.9071719696058 16.1051021200622,45.9071387772961 16.105037525065,45.9071106095973 16.1048294531008,45.9070615028 16.1044349787702,45.9068695556386 16.1042320318945,45.9067357116329 16.1038765138806,45.9064741474094 16.10362713076,45.9064073468003 16.1033417964016,45.9062872744627 16.1032332921786,45.9062115178212 16.1030267013446,45.9060318017225 16.102999003225,45.9058871567526 16.1028552346397,45.905905830605 16.1027383153769,45.905872363593 16.1025581767483,45.9060503831264 16.1024366980013,45.9061002312667 16.1023000048132,45.9062421574923 16.1020911160761,45.9063393659633 16.1016305555616,45.9063723137857 16.1012515126401,45.9062537522618 16.1011447536425,45.9061065850939 16.1012248215313,45.9060749412379 16.1013530206403,45.9057373025165 16.1013300226688,45.9055218563448 16.101125145285,45.9052918081672 16.1006839491771,45.9050094405563 16.1006121834212,45.9049252492718 16.1003766006475,45.9050822551933 16.1002535576819,45.9052089169739 16.1001973241908,45.9052667740568 16.10009415997,45.9054196357203 16.0999152377223,45.9053119958964 16.099832677554,45.9051608478907 16.0995938206635,45.9048224928937 16.099402481653,45.9046184845825 16.0991842617041,45.9042824270954 16.0991267961979,45.9042775709576 16.0991183166891,45.9040829592377 16.0989472309119,45.9039063223182 16.0988489969202,45.9038049033977 16.0988341531341,45.9035238355009 16.0987707444807,45.9033745849637 16.0985548682546,45.9030430315313 16.0981253275971,45.9029552354986 16.0979782955419,45.9029663668829 16.097900865379,45.9030482498035 16.097760204692,45.903055310225 16.0975855967077,45.9030036644307 16.0971498116176,45.902709260347 16.0971231886384,45.9026912770543 16.0971110724738,45.9026830940237 16.0968905685465,45.9025414485581 16.0965682922917,45.9023723321246 16.0964418577443,45.9023719045852 16.0963387930316,45.9024856417318 16.0961853067177,45.9025377726026 16.0960485155841,45.9025685376115 16.0959631682112,45.9026330605662 16.0958531545054,45.9026621906363 16.0958094573624,45.9026737593259 16.0956830301632,45.9026716933726 16.0954691310731,45.9026280132376 16.0951595257796,45.9024774038829 16.0949474894017,45.9024091941537 16.0944219600104,45.9023505072211 16.0935298932455,45.9025342121454 16.0930881332565,45.902567849266 16.0928502585407,45.9026142476551 16.0927394121657,45.9026447601225 16.0926025797657,45.902682456367 16.0925497237325,45.9026970117205 16.092501986856,45.9027101519541 16.0923783620159,45.9026972814752 16.0923344742459,45.9026927078937 16.0922128377963,45.9026971318116 16.0919945033941,45.9027151092971 16.0918914269153,45.9027235878653 16.0918141213768,45.9027299593338 16.0917445788702,45.9026995052756 16.0914599373062,45.902574867164 16.0911018494553,45.9022188551228 16.0906389752127,45.9018270215506 16.090640722758,45.9016783219643 16.0905546481707,45.9015860110164 16.090308852884,45.9014658452355 16.0901558843264,45.9014248047821 16.0899096984822,45.901404288351 16.0899085874857,45.9012278481641 16.0899202439649,45.9011051985934 16.0899707101921,45.9009352959278 16.090040626912,45.9008006552423 16.0903331071224,45.9004367854428 16.0904568555957,45.9001807329783 16.0905974795747,45.8999523083171 16.0907541895981,45.8990597704304 16.090938463902,45.8984306293337 16.0911466005463,45.8980257231541 16.0915418267509,45.8977687121665 16.0916966320878,45.8975466649093 16.0917358191812,45.8970241363373 16.0920067786052,45.8967568567472 16.0923242747274,45.8965953417861 16.0927700578792,45.8962920844171 16.0928691644859,45.8962143545189 16.092730634635,45.8960453776913 16.0927290721372,45.8958515609772 16.0926755219414,45.8957458644228 16.092750518048,45.8953938861186 16.0927388374125,45.8950403175762 16.0926447993948,45.8947814517117 16.0923562317872,45.8943888349481 16.0922879853347,45.8942506216299 16.0922811319907,45.8941515527939 16.0922202149752,45.8940296228387 16.0917462900215,45.8936142514399 16.0914492284218,45.8933851139348 16.0913595229367,45.8932414228225 16.0913492464591,45.8930748661197 16.0910966370424,45.8928452765808 16.0909300467161,45.8927533461684 16.0909115379414,45.8927431204703 16.0907926191572,45.8926774910785 16.090704096467,45.8923417676732 16.0904814474659,45.8920873834794 16.0902721691161,45.8919178305589 16.0900708650173,45.891734345735 16.089615845092,45.8916847793334 16.0892160574132,45.8915872839281 16.0889082220073,45.8915248765447 16.0886296231743,45.8912792015547 16.0884193666886,45.8911021159145 16.0881795553933,45.8910472109925 16.0879576461795,45.8907094983394 16.0875192012395,45.8906695831213 16.0873026852151,45.8906079175943 16.0872323470062,45.8904999092009 16.0872275704316,45.8901372355304 16.0873215058733,45.8897932613325 16.0874773839417,45.8895115389793 16.0876307930802,45.889336882521 16.0874236310828,45.8889157149153 16.0874112083737,45.8887589702091 16.087510638169,45.8886710604839 16.0873397668068,45.8887085466553 16.0872592191216,45.8887262163137 16.0868912065179,45.8888129176259 16.0866149824178,45.8888262711347 16.08648882538,45.8888292356575 16.0864305435411,45.8888305912616 16.0864230831934,45.8888307667122 16.0849455228748,45.8884421272611 16.084710816406,45.8884162020782 16.0845887362946,45.8883584106912 16.0842576670757,45.8879427937111 16.0841500276237,45.8878379534548 16.0838404571919,45.8875372788482 16.0833971829848,45.8873668481787 16.0832904320564,45.8873075852465 16.0831971024354,45.8871490144356 16.0832090594381,45.8868735139057 16.0832910043951,45.8865464482998 16.0830775381683,45.8861882065358 16.082982953786,45.8862388053225 16.0827210908044,45.8864130398572 16.0826534830072,45.8865401851438 16.0826084302553,45.8867075862883 16.0824605582489,45.8868700156704 16.0824333497933,45.8870826159507 16.0825369832665,45.8873039893902 16.0825077091732,45.887565475429 16.0822377805126,45.8879163832056 16.082002638854,45.8880913435796 16.0818424457236,45.8881557838958 16.0815167613995,45.8882163815285 16.0812176163446,45.8883796795271 16.081047176097,45.8885736075983 16.0809400953763,45.8886779928591 16.0807035807412,45.8888854726477 16.0804914132219,45.8890376363065 16.079942877543,45.8892823263391 16.0794972041712,45.8894633844582 16.0792512898695,45.8895628842063 16.0789829293205,45.8896382855288 16.0786509936216,45.8897005012494 16.0780590144554,45.8898295907142 16.0777093718731,45.8898776000317 16.0773823363367,45.88993400948 16.0772050080035,45.8899925331161 16.0770679532356,45.8900938201404 16.0769271850522,45.8903508231052 16.0767553735667,45.8904154651902 16.0764939731521,45.8904614608509 16.0762814138849,45.8905018586233 16.0760797795699,45.8905509137461 16.0758419185403,45.89061749768 16.0752167899226,45.8908158756644 16.0749665095734,45.8909258153097 16.0745242908407,45.8910240445686 16.0741994403573,45.8910962208203 16.073932364004,45.8910626469056 16.0733992405955,45.8911710296914 16.072731906077,45.891437315825 16.0723133754177,45.8915428062515 16.0719639805327,45.891737179087 16.0717516750015,45.8920789775346 16.0716928792534,45.8922501269958 16.0714871598006,45.8924334295859 16.0713541480614,45.8926090252891 16.0713479105161,45.892774955008 16.071305002413,45.8928718940314 16.0712073912282,45.8932342299525 16.0709663364992,45.8939390610753 16.0705983710182,45.8944631461888 16.0703384063553,45.8947599707147 16.069949194938,45.895246380898 16.0699074947639,45.8953333444225 16.0699179733993,45.8955574358034 16.0698742931375,45.8957436026847 16.0697776468072,45.8959000231155 16.0696557493631,45.8960233353814 16.069556306436,45.8961307717731 16.0694684645292,45.89622558376 16.0694903235512,45.8962351498115 16.0699918048338,45.8964461454252 16.0701991655849,45.8965751570025 16.0704256863265,45.8967520807109 16.0705734213916,45.896843433832 16.0707582206293,45.8969330949353 16.070784725528,45.8971169856512 16.0710365134839,45.8972162745164 16.071092203854,45.8973915144345 16.0711532305685,45.8974394192908 16.0713334438126,45.8979809099349 16.0713792065046,45.8981357045086 16.0714343056768,45.8983583982762 16.0714707917808,45.8985175156522 16.0714862533302,45.8985485602982 16.0715922943271,45.8987088346161 16.0717687677523,45.898913766197 16.0719071003025,45.8992737893547 16.0721415878519,45.8992573863633 16.0721359733195,45.8996482626279 16.0721312833,45.9000907393669 16.0725363524426,45.9002149296715 16.0729126042308,45.9003870348449 16.0729417874117,45.9005145357915 16.0729457707096,45.9005318822573 16.0725852960287,45.9005855129573 16.0721260830546,45.9007160631327 16.0718001492787,45.9008789748957 16.0717272708251,45.9009275967756 16.0712736379947,45.9012206351518 16.0712294414654,45.9012491813331 16.0711894121737,45.9012684322033 16.0708128426645,45.9014495912205 16.0706823907276,45.9015789143625 16.0705138447624,45.9018281870171 16.0704373262125,45.9019101636523 16.0703658072237,45.9020441969472 16.0702572994787,45.902437311597 16.0700075835489,45.9031103195573 16.0700081644154,45.9031751437292 16.0700630491038,45.9033064950419 16.070090466311,45.9033443826727 16.0704231106802,45.9037825958007 16.0707814085582,45.9040480051952 16.071049822551,45.9041715991325 16.0711845968827,45.9042336733253 16.071457991282,45.9044661692006 16.0718511002624,45.9048544492679 16.0720487440498,45.9051142444244 16.072133228162,45.9054708557256 16.0721489143316,45.905700454659 16.0723643775621,45.9059452914192 16.0726300520065,45.9062553714504 16.072784551621,45.9064287051114 16.0729031947046,45.906562927883 16.0729922562855,45.9066674678278 16.0730680604592,45.9067790826291 16.0731481048342,45.9069070865111 16.0731796199956,45.9070715373236 16.073160172991,45.9075940154167 16.0731325885628,45.9079656617821 16.0731312347421,45.9081007442521 16.0731756947896,45.9085272628203 16.0730923539428,45.9089864914395 16.0731184955451,45.9091707280813 16.0731156689352,45.9092388155361 16.0730995801346,45.9095808021096 16.0731155714428,45.9098551533138 16.073140489815,45.9101796843533 16.0731968476963,45.910400851875 16.0732386936536,45.9107154810278 16.0732019235266,45.911069016338 16.0732431132139,45.9115514122263 16.0732335173607,45.9117299096682 16.0733039024023,45.9122074981142 16.0734963217107,45.912588848157 16.0733881781329,45.912857345231 16.0733409185806,45.913289083367 16.0733117486655,45.9135622435929 16.0732621314871,45.9137684432862 16.0732916142058,45.9140637231112 16.0732479611276,45.914282524857 16.0732597209602,45.914417459099 16.0733123065661,45.9146646851984 16.073361770406,45.9149250390752 16.0734666037574,45.9154329298319 16.0734795166516,45.9155004092321 16.0735172535958,45.9155655680718 16.0735877262456,45.9156911423127 16.0736582748653,45.9158497629552 16.0737621634422,45.9160251601097 16.0740125996919,45.9163206885985 16.0741880024427,45.916795184501 16.0741875761461,45.9168076034526 16.0744321567243,45.9169921287069 16.0745295595816,45.9171622228751 16.0746469607857,45.9172944540439 16.0749201634561,45.9175057415995 16.0751762532617,45.9177173823742 16.0753805797424,45.9179692950616 16.0755476945012,45.9182395326097 16.0756088610612,45.9183058898741 16.0757150013054,45.9186101201596 16.075868581696,45.91900001072 16.0760031568385,45.9192906534116 16.0761772253019,45.919528306025 16.0762807357509,45.9195984793469 16.0763996975865,45.9196533965311 16.0770229084436,45.9198992001471 16.0774684408795,45.9198750913184 16.0776661716394,45.9197967164826 16.0777080754066,45.9198103743065 16.0780033283271,45.9198823539916 16.078289218646,45.9199253858019 16.0785599560572,45.9200336371955 16.078659515661,45.9200441304192 16.0786825663991,45.920046555728 16.0787327274689,45.9199669294617 16.0791605538567,45.9199813447322 16.0795126499476,45.9201205047949</coordinates></LinearRing></outerBoundaryIs></Polygon></MultiGeometry>
  </Placemark>
  <Placemark>
	<Style><LineStyle><color>ff0000ff</color></LineStyle><PolyStyle><fill>0</fill></PolyStyle></Style>
	<ExtendedData><SchemaData schemaUrl="#ju_priroda_maksmir_zp_poligoni">
		<SimpleData name="zasticeno_">4702</SimpleData>
		<SimpleData name="kategorija">28</SimpleData>
		<SimpleData name="kategori_1">Spomenik parkovne arhitekture</SimpleData>
		<SimpleData name="podkategor">Park</SimpleData>
		<SimpleData name="naziv">ZAGREB - PERIVOJ SRPANJSKIH ŽRTAVA</SimpleData>
		<SimpleData name="naziv_akt">Perivoj srpanjskih žrtava u Zagrebu</SimpleData>
		<SimpleData name="broj_regis">429</SimpleData>
		<SimpleData name="naziv_full">Perivoj srpanjskih žrtava u Zagrebu (Spomenik parkovne arhitekture)</SimpleData>
	</SchemaData></ExtendedData>
      <MultiGeometry><Polygon><outerBoundaryIs><LinearRing><coordinates>15.9754040818826,45.8275786265675 15.9758416363219,45.8276296409207 15.976082664335,45.8276398990321 15.976092069286,45.8276179161299 15.9765797602659,45.8276246933715 15.9765944565299,45.8271221742577 15.9765661348152,45.8270703964139 15.9765376958065,45.8270117769005 15.9764760443544,45.8269575473664 15.9764106708378,45.8269143016097 15.9763354827966,45.826869770921 15.9763326137022,45.8268177767403 15.9763794341709,45.8264724078678 15.9764360917536,45.8261296916308 15.976455494674,45.82600769123 15.9764711006372,45.82589256854 15.9764784043042,45.8258623896551 15.9765049733036,45.8258142500884 15.9765355312109,45.8257701823569 15.9765422340274,45.8257057860857 15.9765122931043,45.8256731879838 15.9764622219092,45.8256092766225 15.9765113346925,45.8252830531263 15.9761470993617,45.825280695468 15.9761474668961,45.8250780916432 15.9761564984736,45.8240280492069 15.9761532071303,45.8237282841784 15.9758924042314,45.8237058746713 15.975881465423,45.8236402601551 15.9758110116962,45.8236422314352 15.9757707395436,45.8236904879485 15.9757467263129,45.8237728294348 15.975725317342,45.8238921085815 15.9757163743726,45.8240523486242 15.9757600000441,45.8241957130949 15.9757754356011,45.8244063949147 15.9758031324084,45.8248702222964 15.9758351696688,45.8252464027062 15.9758455525405,45.8256159233582 15.9758236369654,45.8260418451092 15.9757421362194,45.8266434992357 15.9754670380551,45.8274836329413 15.9754384129722,45.8275263145689 15.9754040818826,45.8275786265675</coordinates></LinearRing></outerBoundaryIs></Polygon></MultiGeometry>
  </Placemark>
  <Placemark>
	<Style><LineStyle><color>ff0000ff</color></LineStyle><PolyStyle><fill>0</fill></PolyStyle></Style>
	<ExtendedData><SchemaData schemaUrl="#ju_priroda_maksmir_zp_poligoni">
		<SimpleData name="zasticeno_">4709</SimpleData>
		<SimpleData name="kategorija">28</SimpleData>
		<SimpleData name="kategori_1">Spomenik parkovne arhitekture</SimpleData>
		<SimpleData name="podkategor">Park</SimpleData>
		<SimpleData name="naziv">ZAGREB - PARK KRALJA PETRA KREŠIMIRA IV.</SimpleData>
		<SimpleData name="naziv_akt">Park kralja Petra Krešimira IV.</SimpleData>
		<SimpleData name="broj_regis">430</SimpleData>
		<SimpleData name="naziv_full">Park kralja Petra Krešimira IV. (Spomenik parkovne arhitekture)</SimpleData>
	</SchemaData></ExtendedData>
      <MultiGeometry><Polygon><outerBoundaryIs><LinearRing><coordinates>15.9899444334067,45.8085626733127 15.9912950674923,45.8085960375366 15.9913951957814,45.8076538483014 15.9912969900628,45.8075701521124 15.9912069438224,45.807492021417 15.9911290367213,45.80741660361 15.9910592876921,45.8073467513325 15.9910056058804,45.8072739409748 15.9909677915419,45.8071869017265 15.9909294259696,45.8070688647401 15.9908955400676,45.8069761544578 15.990861405663,45.8068693549521 15.9908520950289,45.8067989773173 15.9896344189887,45.8067616362345 15.9895217927531,45.8082255435955 15.9896259700127,45.8082519860815 15.9897199061206,45.8082761404455 15.9897797403465,45.8082946447058 15.9898398465352,45.8083286032401 15.9898765641217,45.8083716172445 15.9899028972406,45.8084326869664 15.98991633748,45.8085193657965 15.9899222377723,45.8085644952932 15.9899444334067,45.8085626733127</coordinates></LinearRing></outerBoundaryIs></Polygon></MultiGeometry>
  </Placemark>
  <Placemark>
	<Style><LineStyle><color>ff0000ff</color></LineStyle><PolyStyle><fill>0</fill></PolyStyle></Style>
	<ExtendedData><SchemaData schemaUrl="#ju_priroda_maksmir_zp_poligoni">
		<SimpleData name="zasticeno_">4710</SimpleData>
		<SimpleData name="kategorija">28</SimpleData>
		<SimpleData name="kategori_1">Spomenik parkovne arhitekture</SimpleData>
		<SimpleData name="podkategor">Park</SimpleData>
		<SimpleData name="naziv">ZAGREB - PARK OPATOVINA</SimpleData>
		<SimpleData name="naziv_akt">Park Opatovina u Zagrebu</SimpleData>
		<SimpleData name="broj_regis">432</SimpleData>
		<SimpleData name="naziv_full">Park Opatovina u Zagrebu (Spomenik parkovne arhitekture)</SimpleData>
	</SchemaData></ExtendedData>
      <MultiGeometry><Polygon><outerBoundaryIs><LinearRing><coordinates>15.9767584231758,45.8171731178032 15.9767087942906,45.8173195210082 15.9766322393652,45.8176668724865 15.9766063068227,45.8176762186365 15.9766070519786,45.8177187895167 15.9766594506676,45.8177305046023 15.9767324915988,45.8179275575378 15.9767600212554,45.8180094344123 15.9768148691501,45.8181610246518 15.9768733732065,45.8182730487549 15.9768346600501,45.8182977094244 15.9768528551528,45.8183431711517 15.9768879650739,45.8183611172292 15.9769312924651,45.8183516239003 15.9769569596818,45.8183270744407 15.9773047025357,45.8183149717764 15.9773460904793,45.8179466314951 15.9773947594244,45.8177454954536 15.9773250200731,45.8177369703361 15.97734191396,45.8174600756405 15.9773766832239,45.8172103995889 15.9774971687912,45.8167253414954 15.9774856244907,45.8167259149609 15.977298739429,45.8167335992328 15.977155073927,45.8167257057793 15.9769765664005,45.816715070253 15.9769068284087,45.8167065439847 15.9767584231758,45.8171731178032</coordinates></LinearRing></outerBoundaryIs></Polygon></MultiGeometry>
  </Placemark>
  <Placemark>
	<Style><LineStyle><color>ff0000ff</color></LineStyle><PolyStyle><fill>0</fill></PolyStyle></Style>
	<ExtendedData><SchemaData schemaUrl="#ju_priroda_maksmir_zp_poligoni">
		<SimpleData name="zasticeno_">4711</SimpleData>
		<SimpleData name="kategorija">28</SimpleData>
		<SimpleData name="kategori_1">Spomenik parkovne arhitekture</SimpleData>
		<SimpleData name="podkategor">Park</SimpleData>
		<SimpleData name="naziv">ZAGREB - PARK KRALJA PETRA SVAČIĆA</SimpleData>
		<SimpleData name="naziv_akt">Park kralja Petra Svačića</SimpleData>
		<SimpleData name="broj_regis">431</SimpleData>
		<SimpleData name="naziv_full">Park kralja Petra Svačića (Spomenik parkovne arhitekture)</SimpleData>
	</SchemaData></ExtendedData>
      <MultiGeometry><Polygon><outerBoundaryIs><LinearRing><coordinates>15.973943292148,45.8073794042649 15.9747865218062,45.8073944480882 15.9748991688972,45.8065592398559 15.9739925367446,45.8065558605852 15.973943292148,45.8073794042649</coordinates></LinearRing></outerBoundaryIs></Polygon></MultiGeometry>
  </Placemark>
  <Placemark>
	<Style><LineStyle><color>ff0000ff</color></LineStyle><PolyStyle><fill>0</fill></PolyStyle></Style>
	<ExtendedData><SchemaData schemaUrl="#ju_priroda_maksmir_zp_poligoni">
		<SimpleData name="zasticeno_">4719</SimpleData>
		<SimpleData name="kategorija">28</SimpleData>
		<SimpleData name="kategori_1">Spomenik parkovne arhitekture</SimpleData>
		<SimpleData name="podkategor">Park</SimpleData>
		<SimpleData name="naziv">ZAGREB - LEUSTEKOV PARK</SimpleData>
		<SimpleData name="naziv_akt">Park u Zagrebu, Mlinovi 72 (Leustekov)</SimpleData>
		<SimpleData name="broj_regis">76</SimpleData>
		<SimpleData name="naziv_full">Park u Zagrebu, Mlinovi 72 (Leustekov) (Spomenik parkovne arhitekture)</SimpleData>
	</SchemaData></ExtendedData>
      <MultiGeometry><Polygon><outerBoundaryIs><LinearRing><coordinates>15.9658875808741,45.8478756431668 15.965924660427,45.8480481495777 15.966074990138,45.8480321502286 15.9664611863164,45.8480717588118 15.9665461772461,45.8478738915012 15.9667232424886,45.8474579543597 15.9668541484862,45.8472657583013 15.9667346707278,45.847194257753 15.9665388818413,45.847184437734 15.9663857650339,45.8472243473876 15.9662447059072,45.8472576385207 15.9660794258586,45.8472979057487 15.965992691656,45.8472995123656 15.9659903941469,45.8472995709122 15.9660029063462,45.8474493291898 15.9660163767996,45.8476185705859 15.9660217727805,45.84767616974 15.9659854564688,45.8476755042379 15.9660198995109,45.847826460939 15.9660476775327,45.8478527683254 15.9660509854691,45.8478636424437 15.9658875808741,45.8478756431668</coordinates></LinearRing></outerBoundaryIs></Polygon></MultiGeometry>
  </Placemark>
  <Placemark>
	<Style><LineStyle><color>ff0000ff</color></LineStyle><PolyStyle><fill>0</fill></PolyStyle></Style>
	<ExtendedData><SchemaData schemaUrl="#ju_priroda_maksmir_zp_poligoni">
		<SimpleData name="zasticeno_">4775</SimpleData>
		<SimpleData name="kategorija">6</SimpleData>
		<SimpleData name="kategori_1">Značajni krajobraz</SimpleData>
		<SimpleData name="naziv">SAVICA</SimpleData>
		<SimpleData name="naziv_akt">Savica</SimpleData>
		<SimpleData name="broj_regis">380</SimpleData>
		<SimpleData name="naziv_full">Savica (Značajni krajobraz)</SimpleData>
	</SchemaData></ExtendedData>
      <MultiGeometry><Polygon><outerBoundaryIs><LinearRing><coordinates>16.0282234319805,45.777784411482 16.0281602306376,45.7776850824818 16.0281449886932,45.7775406915578 16.0289277855481,45.7777935262763 16.0289288651618,45.7773446203218 16.0289754725434,45.7768949122495 16.0290015433589,45.7767461027429 16.0290154558031,45.7766667976884 16.0290236934132,45.776620042018 16.0290442170245,45.776503872388 16.0291214363806,45.776343306315 16.0292127848384,45.7761387081755 16.0294236320118,45.7757152307883 16.0296748705151,45.7753048763859 16.0297534607365,45.7751796776653 16.0299296378195,45.7749638205809 16.0301054329709,45.7747320351718 16.0304476071531,45.7743480571963 16.030790576324,45.7739760487884 16.0309225203214,45.7738206550557 16.031127770325,45.7735868294293 16.0313229427947,45.7733585408539 16.0313328119488,45.7733469739034 16.0313652744775,45.7733091354533 16.0313813756403,45.7732903956513 16.0317165717235,45.7729084547041 16.0319293680712,45.7726632310561 16.0322639945605,45.7724254342782 16.0324487114345,45.77229328968 16.0326380589714,45.7721146439993 16.0327791929605,45.7719662141345 16.0329213041945,45.771793043552 16.0330399799339,45.7715930529114 16.0331233965879,45.7714118138972 16.03317990349,45.7711887140903 16.0332533059761,45.7707435222994 16.0332843319615,45.7705692675196 16.0333028768299,45.7704115180928 16.033347148617,45.7699902318899 16.0333493012626,45.769593338205 16.0333483967412,45.7695476245887 16.0333213748581,45.7692881014083 16.033309079011,45.7689741103776 16.0332386838787,45.7686737389407 16.0331931024477,45.7684505818411 16.0331775986889,45.7681975842082 16.0331891685868,45.7679665623648 16.0331942841371,45.767861936307 16.033199504215,45.7677601900403 16.0332481707714,45.7675979746161 16.0332654354925,45.7675627729084 16.0331907928076,45.7676177158063 16.0329957477478,45.7677416312967 16.0329119906944,45.7677948271331 16.0325474358628,45.7680020902504 16.0321635075902,45.768234917224 16.0317360804673,45.7684877201916 16.0314111564605,45.7686748965361 16.0310387047378,45.7688872512924 16.0305655105773,45.769168925589 16.0304959988138,45.7692094009858 16.030178411524,45.769394624387 16.0301401488832,45.7694190316289 16.0299443103143,45.7695440183724 16.0298887610469,45.76959057951 16.0297472774241,45.7696580222825 16.0296321048625,45.7697156753819 16.0294808159781,45.7698023332105 16.029417380237,45.7698386938812 16.0293105148219,45.7699022295791 16.0289467549295,45.7701187523673 16.028703832096,45.770261448892 16.0284798762248,45.7703961249594 16.0282777768021,45.7705155941994 16.0281039854796,45.7706171839712 16.0278152743154,45.7707916324234 16.0275656525079,45.7709504052729 16.0272781689465,45.7711313360045 16.0270549479952,45.7712847281688 16.0268943144829,45.7713807018032 16.0267045702705,45.7714827632546 16.0263681947415,45.7716820250463 16.0262173579864,45.7717747990489 16.0260516211067,45.7718809180832 16.0259699145578,45.7719333974592 16.0254215761262,45.7723214549494 16.0251353974776,45.7725136331837 16.0247997071327,45.7727519445415 16.0246857440807,45.7728323626249 16.0244036473153,45.7730429119335 16.02421611413,45.7732164226336 16.024120920101,45.7732819816061 16.0240447645751,45.773316306732 16.02389384846,45.7733872121462 16.0238551916143,45.7733968588876 16.0237384975965,45.7734503605858 16.0235654151951,45.7735572551863 16.0232902419769,45.7737390369593 16.0231193871229,45.7738559279638 16.0224648684837,45.7743111929471 16.0222059669877,45.7744989787786 16.0219573846281,45.7746677314149 16.0217764888176,45.7748003248967 16.0216060517727,45.7749127163625 16.0213602075507,45.7750766202285 16.0211096328452,45.7752371744711 16.0208980619862,45.7753776462016 16.0205581301825,45.7756116081562 16.0202078525242,45.7758520941908 16.0196858724281,45.7762162998899 16.019468934217,45.7763670041147 16.0191950220459,45.7765485113043 16.0190497855541,45.7766450784992 16.0188996329066,45.7767450440495 16.0187424989366,45.7768492990377 16.0184966447888,45.7770123868277 16.0182732151776,45.7771695399695 16.0180904768283,45.7772901524462 16.0179316382283,45.7773999652857 16.0179441464431,45.7774087587208 16.0183232185674,45.7776794877261 16.0183593881107,45.7777052845132 16.0184877088061,45.7777966152265 16.0185096911893,45.7778123643914 16.01855174111,45.777842234999 16.0186114293932,45.7778845971516 16.0186240821995,45.7778936484636 16.0186368635981,45.7779027003159 16.0186852374629,45.7778850880579 16.0188789890208,45.7778147298788 16.0191950849407,45.7777232010862 16.0192404942272,45.777721322624 16.0192860007067,45.7783665809499 16.0196536992551,45.7786305091383 16.0196855195989,45.7786537677758 16.0196971494407,45.7786621848071 16.0197119731785,45.7786730447237 16.0197322915323,45.7786879768357 16.0197357426069,45.7786904208025 16.0197416206713,45.7786947645512 16.0197515873559,45.7787021848059 16.0197545271616,45.7787042667031 16.0197715253674,45.778716485452 16.0198255899753,45.7787550441657 16.0198415241451,45.7787664324158 16.0198040301052,45.7788486335557 16.01975327187,45.7789650766142 16.0198113045906,45.7789792827235 16.0197501925039,45.7791208001847 16.0196885400201,45.7792699537415 16.0196252356298,45.7794134630682 16.0196124271299,45.7794672568539 16.0195826588758,45.7795937200671 16.0195601294622,45.7796873638078 16.0195395865992,45.7797739938566 16.0195165397359,45.7798736658698 16.019491466618,45.7799783664357 16.019467178773,45.7800780197194 16.0194427000211,45.780182819949 16.0194209209402,45.7802766368708 16.0194042086358,45.7803476948636 16.0193861621723,45.7804249531613 16.0193668468815,45.7805070929311 16.0193507911797,45.7805738571306 16.0193365322337,45.7806334070916 16.0193413185729,45.7806388089303 16.01945811199,45.7807705810071 16.0197481213108,45.7810980677951 16.0202699643058,45.7815348633555 16.0202231337273,45.7815671494907 16.0205768744663,45.7818270568252 16.0206019850549,45.7818081764122 16.0209447912312,45.782083873191 16.0210215399814,45.7821470909541 16.0210623600646,45.7821859534552 16.0220722300427,45.7819958253868 16.0221182939362,45.7819779320849 16.0220915113716,45.7819517258719 16.0222138384637,45.7819034683255 16.0229161669651,45.7814473252467 16.023001055413,45.7813896956715 16.0229327314877,45.7812356940133 16.0230304162107,45.7809527962649 16.0229562321606,45.7808739223313 16.0230871886627,45.7806792493398 16.0233402042561,45.7805350810495 16.0235238320679,45.7805477504181 16.0235709388146,45.7806098458897 16.0236459330401,45.7805934933821 16.0238063128667,45.7805394054926 16.0240453320857,45.7805046352665 16.0243104341569,45.7804903437053 16.0244166604735,45.7804846168831 16.0249440066208,45.7804561869023 16.0252967254274,45.7804291292297 16.0255975960595,45.7804047345627 16.0257096339084,45.7803862139176 16.0260042617288,45.7804003936824 16.0264071481357,45.7803715611314 16.0269001260852,45.7802732757582 16.0271333440381,45.7801890301418 16.0275388858748,45.7799825840724 16.0278341883951,45.7797490469656 16.0280959171491,45.7793487274498 16.0282619849127,45.7790073092166 16.0283525609646,45.7785596726356 16.0283628616029,45.7781920567746 16.0282234319805,45.777784411482</coordinates></LinearRing></outerBoundaryIs></Polygon></MultiGeometry>
  </Placemark>
</Folder>
</Document></kml>
