<?xml version="1.0" encoding="utf-8" ?>
<kml xmlns="http://www.opengis.net/kml/2.2">
<Document id="root_doc">
<Schema name="vinarije" id="vinarije">
	<SimpleField name="Naziv" type="string"></SimpleField>
	<SimpleField name="Ponuda" type="string"></SimpleField>
	<SimpleField name="Adresa" type="string"></SimpleField>
	<SimpleField name="Telefon" type="string"></SimpleField>
	<SimpleField name="Email" type="string"></SimpleField>
	<SimpleField name="Web" type="string"></SimpleField>
	<SimpleField name="lat" type="float"></SimpleField>
	<SimpleField name="long" type="float"></SimpleField>
	<SimpleField name="galerija" type="string"></SimpleField>
</Schema>
<Folder><name>vinarije</name>
  <Placemark>
	<ExtendedData><SchemaData schemaUrl="#vinarije">
		<SimpleData name="Naziv">Vina Korak</SimpleData>
		<SimpleData name="Ponuda">vina iz vlastite proizvodnje</SimpleData>
		<SimpleData name="Adresa">Plešivica 34, 10450 Jastrebarsko</SimpleData>
		<SimpleData name="Telefon">01 6293 088</SimpleData>
		<SimpleData name="Email">velimir.korak@zg.t-com.hr</SimpleData>
		<SimpleData name="Web">-</SimpleData>
		<SimpleData name="lat">45.721814719999998</SimpleData>
		<SimpleData name="long">15.658274159999999</SimpleData>
		<SimpleData name="galerija">korak.jpg</SimpleData>
	</SchemaData></ExtendedData>
      <Point><coordinates>15.65827416,45.72181472</coordinates></Point>
  </Placemark>
  <Placemark>
	<ExtendedData><SchemaData schemaUrl="#vinarije">
		<SimpleData name="Naziv">Vina Šember</SimpleData>
		<SimpleData name="Ponuda">proizvodnja, prodaja i degustacije vina, vinske ture, ugostiteljske usluge</SimpleData>
		<SimpleData name="Adresa">Donji Pavlovčani 11b, 10450 Jastrebarsko</SimpleData>
		<SimpleData name="Telefon">01 6282 476</SimpleData>
		<SimpleData name="Email">semberzdenko@gmail.com</SimpleData>
		<SimpleData name="Web">-</SimpleData>
		<SimpleData name="lat">45.699644599999999</SimpleData>
		<SimpleData name="long">15.664490600000001</SimpleData>
		<SimpleData name="galerija">sember.jpg</SimpleData>
	</SchemaData></ExtendedData>
      <Point><coordinates>15.6644906,45.6996446</coordinates></Point>
  </Placemark>
  <Placemark>
	<ExtendedData><SchemaData schemaUrl="#vinarije">
		<SimpleData name="Naziv">Vina Ivančić</SimpleData>
		<SimpleData name="Ponuda">cjelokupna ugostiteljska ponuda, smještaj, degustacije vina</SimpleData>
		<SimpleData name="Adresa">Plešivica 62, 10450 Plešivica</SimpleData>
		<SimpleData name="Telefon">01 6293 303</SimpleData>
		<SimpleData name="Email">kontakt@restoran-ivancic.hr</SimpleData>
		<SimpleData name="Web">https://www.restoran-ivancic.hr</SimpleData>
		<SimpleData name="lat">45.727205740000002</SimpleData>
		<SimpleData name="long">15.650640420000000</SimpleData>
		<SimpleData name="galerija">ivancic.jpg,ivancic_2.jpg,ivancic_3.jpg,ivancic_4.jpg,ivancic_5.jpg,ivancic_6.jpg</SimpleData>
	</SchemaData></ExtendedData>
      <Point><coordinates>15.65064042,45.72720574</coordinates></Point>
  </Placemark>
  <Placemark>
	<ExtendedData><SchemaData schemaUrl="#vinarije">
		<SimpleData name="Naziv">Vina Braje</SimpleData>
		<SimpleData name="Ponuda">kušanje vina, ostalog pića, narezaka i toplog jela pretežito iz vlastite proizvodnje</SimpleData>
		<SimpleData name="Adresa">Lukošin dol 2, Jastrebarsko</SimpleData>
		<SimpleData name="Telefon">01 6279 039</SimpleData>
		<SimpleData name="Email">josip.braje1@zg.t-com.hr</SimpleData>
		<SimpleData name="Web">-</SimpleData>
		<SimpleData name="lat">45.711313079999996</SimpleData>
		<SimpleData name="long">15.656384330000000</SimpleData>
		<SimpleData name="galerija">braje.jpg</SimpleData>
	</SchemaData></ExtendedData>
      <Point><coordinates>15.65638433,45.71131308</coordinates></Point>
  </Placemark>
  <Placemark>
	<ExtendedData><SchemaData schemaUrl="#vinarije">
		<SimpleData name="Naziv">Vina Gregorić</SimpleData>
		<SimpleData name="Ponuda">kušanje vina, pjenušci, domaća hrana, smještaj</SimpleData>
		<SimpleData name="Adresa">Vlaškovec 45, Jastrebarsko</SimpleData>
		<SimpleData name="Telefon">01 6293 203</SimpleData>
		<SimpleData name="Email">vino.gregoric@gmail.com</SimpleData>
		<SimpleData name="Web">-</SimpleData>
		<SimpleData name="lat">45.727801059999997</SimpleData>
		<SimpleData name="long">15.673818219999999</SimpleData>
		<SimpleData name="galerija">gregoric.jpg</SimpleData>
	</SchemaData></ExtendedData>
      <Point><coordinates>15.67381822,45.72780106</coordinates></Point>
  </Placemark>
  <Placemark>
	<ExtendedData><SchemaData schemaUrl="#vinarije">
		<SimpleData name="Naziv">Vinska kuća Jana</SimpleData>
		<SimpleData name="Ponuda">ponuda hrane i pića, 60 etiketa vina lokalnih vinara</SimpleData>
		<SimpleData name="Adresa">Prodin dol bb, Gorica Svetojanska</SimpleData>
		<SimpleData name="Telefon">01 6287 372</SimpleData>
		<SimpleData name="Email">kontakt@jana.hr</SimpleData>
		<SimpleData name="Web">https://www.jana.hr</SimpleData>
		<SimpleData name="lat">45.725902429999998</SimpleData>
		<SimpleData name="long">15.609116780000001</SimpleData>
		<SimpleData name="galerija">jana.jpg</SimpleData>
	</SchemaData></ExtendedData>
      <Point><coordinates>15.60911678,45.72590243</coordinates></Point>
  </Placemark>
  <Placemark>
	<ExtendedData><SchemaData schemaUrl="#vinarije">
		<SimpleData name="Naziv">Vina Lacković-Golubić</SimpleData>
		<SimpleData name="Ponuda">ponuda grožđa, vina te drugih proizvoda OPG-a (bijeli luk)</SimpleData>
		<SimpleData name="Adresa">Plešivica 32, Jastrebarsko</SimpleData>
		<SimpleData name="Telefon">01 629 3090</SimpleData>
		<SimpleData name="Email">lackovic.golubic@gmail.com</SimpleData>
		<SimpleData name="Web">-</SimpleData>
		<SimpleData name="lat">45.722308169999998</SimpleData>
		<SimpleData name="long">15.657067730000000</SimpleData>
		<SimpleData name="galerija">lackovic_golubic.jpg</SimpleData>
	</SchemaData></ExtendedData>
      <Point><coordinates>15.65706773,45.72230817</coordinates></Point>
  </Placemark>
  <Placemark>
	<ExtendedData><SchemaData schemaUrl="#vinarije">
		<SimpleData name="Naziv">Vina Režek Krešimir</SimpleData>
		<SimpleData name="Ponuda">degustacija vina, tradicionalna jela plešivičkog kraja</SimpleData>
		<SimpleData name="Adresa">Plešivica 39, Jastrebarsko</SimpleData>
		<SimpleData name="Telefon">01 629 4836</SimpleData>
		<SimpleData name="Email">kontakt@rezek.hr</SimpleData>
		<SimpleData name="Web">https://www.rezek.hr</SimpleData>
		<SimpleData name="lat">45.720597230000003</SimpleData>
		<SimpleData name="long">15.659066380000001</SimpleData>
		<SimpleData name="galerija">rezek.jpg</SimpleData>
	</SchemaData></ExtendedData>
      <Point><coordinates>15.65906638,45.72059723</coordinates></Point>
  </Placemark>
  <Placemark>
	<ExtendedData><SchemaData schemaUrl="#vinarije">
		<SimpleData name="Naziv">Vina Tomac</SimpleData>
		<SimpleData name="Ponuda">kušanje i prodaja vina, ručkovi</SimpleData>
		<SimpleData name="Adresa">Donja Reka 5, Jastrebarsko</SimpleData>
		<SimpleData name="Telefon">01 628 2617</SimpleData>
		<SimpleData name="Email">tomac@tomac.hr</SimpleData>
		<SimpleData name="Web">https://www.tomac.hr</SimpleData>
		<SimpleData name="lat">45.689706340000001</SimpleData>
		<SimpleData name="long">15.647916750000000</SimpleData>
		<SimpleData name="galerija">tomac.jpg</SimpleData>
	</SchemaData></ExtendedData>
      <Point><coordinates>15.64791675,45.68970634</coordinates></Point>
  </Placemark>
  <Placemark>
	<ExtendedData><SchemaData schemaUrl="#vinarije">
		<SimpleData name="Naziv">Vina Španić</SimpleData>
		<SimpleData name="Ponuda">kušanje vina i pjenušaca, domaći kruh, mliječne i mesne prerađevine, kolači</SimpleData>
		<SimpleData name="Adresa">Prhoć 35, Jastrebarsko</SimpleData>
		<SimpleData name="Telefon">01 627 9069</SimpleData>
		<SimpleData name="Email">kontakt@spanic.hr</SimpleData>
		<SimpleData name="Web">https://www.spanic.hr</SimpleData>
		<SimpleData name="lat">45.700474499999999</SimpleData>
		<SimpleData name="long">15.688911610000000</SimpleData>
		<SimpleData name="galerija">spanic.jpg</SimpleData>
	</SchemaData></ExtendedData>
      <Point><coordinates>15.68891161,45.7004745</coordinates></Point>
  </Placemark>
</Folder>
</Document></kml>
